id,longitude,latitude,country_code,country_code_3,country_name,city,postal_code,region_code,area_code,dma_code
1,-115.1243,36.1737,US,USA,United States,Las Vegas,89101,NV,702,839
2,-117.7596,33.7081,US,USA,United States,Irvine,92620,CA,949,803
3,-74.0052,40.72139999999999,US,USA,United States,New York,10013,NY,212,501
4,-87.6517,41.848299999999995,US,USA,United States,Chicago,60602,IL,312,602
5,-97.822,37.751000000000005,US,USA,United States,,,,,
6,-73.8556,40.8424,US,USA,United States,Bronx,10462,NY,718,501
7,-97.822,37.751000000000005,US,USA,United States,,,,,
8,-97.822,37.751000000000005,US,USA,United States,,,,,
9,-77.6239,43.1575,US,USA,United States,Rochester,14608,NY,585,538
10,-97.822,37.751000000000005,US,USA,United States,,,,,
11,-111.6133,40.21809999999999,US,USA,United States,Provo,84606,UT,801,770
12,-93.2332,36.97839999999999,US,USA,United States,Ozark,65721,MO,417,619
13,-95.4739,29.830099999999987,US,USA,United States,Houston,77092,TX,713,618
14,-97.822,37.751000000000005,US,USA,United States,,,,,
15,-122.0574,37.41919999999999,US,USA,United States,Mountain View,94043,CA,650,807
16,-97.822,37.751000000000005,US,USA,United States,,,,,
17,-97.822,37.751000000000005,US,USA,United States,,,,,
18,-97.822,37.751000000000005,US,USA,United States,,,,,
19,-87.5645,41.710499999999996,US,USA,United States,Chicago,60617,IL,773,602
20,-77.4728,39.048100000000005,US,USA,United States,Ashburn,20149,VA,703,511
21,-78.3715,36.664800000000014,US,USA,United States,Boydton,23917,VA,434,560
22,-97.822,37.751000000000005,US,USA,United States,,,,,
23,-97.822,37.751000000000005,US,USA,United States,,,,,
24,-95.4739,29.830099999999987,US,USA,United States,Houston,77092,TX,713,618
25,-91.2621,43.8631,US,USA,United States,La Crosse,54603,WI,608,702
26,-97.822,37.751000000000005,US,USA,United States,,,,,
27,-121.87049999999999,37.44040000000001,US,USA,United States,Milpitas,95035,CA,408,807
28,-97.822,37.751000000000005,US,USA,United States,,,,,
29,-97.822,37.751000000000005,US,USA,United States,,,,,
30,-97.822,37.751000000000005,US,USA,United States,,,,,
31,-118.3104,34.0762,US,USA,United States,Los Angeles,90004,CA,323,803
32,-97.822,37.751000000000005,US,USA,United States,,,,,
33,-84.3846,33.83789999999999,US,USA,United States,Atlanta,30305,GA,404,524
34,-121.8914,37.33869999999999,US,USA,United States,San Jose,95113,CA,408,807
35,-83.0235,39.96530000000001,US,USA,United States,Columbus,43215,OH,614,535
36,-80.8425,35.22749999999999,US,USA,United States,Charlotte,28246,NC,704,517
37,-114.5354,48.441599999999994,US,USA,United States,Whitefish,59937,MT,406,762
38,-74.0052,40.72139999999999,US,USA,United States,New York,10013,NY,212,501
39,-97.822,37.751000000000005,US,USA,United States,,,,,
40,-119.7072,34.419399999999996,US,USA,United States,Santa Barbara,93101,CA,805,855
41,-74.0052,40.72139999999999,US,USA,United States,New York,10013,NY,212,501
42,-97.822,37.751000000000005,US,USA,United States,,,,,
43,-95.525,29.984499999999997,US,USA,United States,Houston,77069,TX,281,618
44,-97.822,37.751000000000005,US,USA,United States,,,,,
45,-97.822,37.751000000000005,US,USA,United States,,,,,
46,-99.9982,37.80199999999999,US,USA,United States,Dodge City,67801,KS,620,678
47,-96.8217,32.778699999999986,US,USA,United States,Dallas,75270,TX,214,623
48,-97.822,37.751000000000005,US,USA,United States,,,,,
49,-97.822,37.751000000000005,US,USA,United States,,,,,
50,-86.7844,36.16589999999999,US,USA,United States,Nashville,37222,TN,615,659
51,-97.822,37.751000000000005,US,USA,United States,,,,,
52,-97.822,37.751000000000005,US,USA,United States,,,,,
53,-97.822,37.751000000000005,US,USA,United States,,,,,
54,-122.1157,37.90209999999999,US,USA,United States,Lafayette,94549,CA,925,807
55,-97.822,37.751000000000005,US,USA,United States,,,,,
56,-86.2448,41.72720000000001,US,USA,United States,South Bend,46637,IN,574,588
57,-97.822,37.751000000000005,US,USA,United States,,,,,
58,-97.822,37.751000000000005,US,USA,United States,,,,,
59,-77.4728,39.048100000000005,US,USA,United States,Ashburn,20149,VA,703,511
60,-73.915,40.6643,US,USA,United States,Brooklyn,11212,NY,718,501
61,-122.0214,37.369699999999995,US,USA,United States,Sunnyvale,94086,CA,408,807
62,-122.3558,37.52600000000001,US,USA,United States,San Mateo,94402,CA,650,807
63,-97.822,37.751000000000005,US,USA,United States,,,,,
64,-74.1724,40.73570000000001,US,USA,United States,Newark,07175,NJ,973,501
65,-97.822,37.751000000000005,US,USA,United States,,,,,
66,-97.822,37.751000000000005,US,USA,United States,,,,,
67,-116.4083,33.705600000000004,US,USA,United States,Palm Desert,92260,CA,760,804
68,-94.6449,38.95519999999999,US,USA,United States,Overland Park,66207,KS,913,616
69,-83.7409,42.27760000000001,US,USA,United States,Ann Arbor,48106,MI,734,505
70,-83.3491,42.50649999999999,US,USA,United States,Farmington,48334,MI,248,505
71,-97.822,37.751000000000005,US,USA,United States,,,,,
72,-97.822,37.751000000000005,US,USA,United States,,,,,
73,-97.822,37.751000000000005,US,USA,United States,,,,,
74,-97.822,37.751000000000005,US,USA,United States,,,,,
75,-122.0574,37.41919999999999,US,USA,United States,Mountain View,94043,CA,650,807
76,-78.1704,38.71629999999999,US,USA,United States,Washington,22747,VA,540,511
77,-91.9449,36.026399999999995,US,USA,United States,Melbourne,72556,AR,870,734
78,-97.822,37.751000000000005,US,USA,United States,,,,,
79,-97.822,37.751000000000005,US,USA,United States,,,,,
80,-78.7417,34.96449999999999,US,USA,United States,Fayetteville,28301,NC,910,560
81,-97.822,37.751000000000005,US,USA,United States,,,,,
82,-97.822,37.751000000000005,US,USA,United States,,,,,
83,-97.822,37.751000000000005,US,USA,United States,,,,,
84,-97.822,37.751000000000005,US,USA,United States,,,,,
85,-119.688,45.86959999999999,US,USA,United States,Boardman,97818,OR,541,810
86,-118.4298,34.03550000000001,US,USA,United States,Los Angeles,90064,CA,310,803
87,-122.34219999999999,47.6344,US,USA,United States,Seattle,98109,WA,206,819
88,-97.822,37.751000000000005,US,USA,United States,,,,,
89,-117.8535,34.01150000000001,US,USA,United States,Walnut,91789,CA,909,803
90,-97.822,37.751000000000005,US,USA,United States,,,,,
91,-95.9404,41.25630000000001,US,USA,United States,Omaha,68197,NE,402,652
92,-97.822,37.751000000000005,US,USA,United States,,,,,
93,-122.0574,37.41919999999999,US,USA,United States,Mountain View,94043,CA,650,807
94,-97.0063,28.92349999999999,US,USA,United States,Victoria,77904,TX,361,626
95,-97.822,37.751000000000005,US,USA,United States,,,,,
96,-83.2307,42.465,US,USA,United States,Southfield,48075,MI,248,505
97,-122.0574,37.41919999999999,US,USA,United States,Mountain View,94043,CA,650,807
98,-96.8705,32.81479999999999,US,USA,United States,Dallas,75247,TX,214,623
99,-97.822,37.751000000000005,US,USA,United States,,,,,
100,-97.822,37.751000000000005,US,USA,United States,,,,,
101,-97.822,37.751000000000005,US,USA,United States,,,,,
102,-94.566,39.10679999999999,US,USA,United States,Kansas City,64106,MO,816,616
103,-97.822,37.751000000000005,US,USA,United States,,,,,
104,-97.822,37.751000000000005,US,USA,United States,,,,,
105,-97.822,37.751000000000005,US,USA,United States,,,,,
106,-80.0664,26.525299999999987,US,USA,United States,Boynton Beach,33424,FL,561,548
107,-111.8906,33.61189999999999,US,USA,United States,Scottsdale,85260,AZ,480,753
108,-97.822,37.751000000000005,US,USA,United States,,,,,
109,-97.822,37.751000000000005,US,USA,United States,,,,,
110,-97.822,37.751000000000005,US,USA,United States,,,,,
111,-97.822,37.751000000000005,US,USA,United States,,,,,
112,-97.822,37.751000000000005,US,USA,United States,,,,,
113,-97.822,37.751000000000005,US,USA,United States,,,,,
114,-97.822,37.751000000000005,US,USA,United States,,,,,
115,-97.822,37.751000000000005,US,USA,United States,,,,,
116,-119.688,45.86959999999999,US,USA,United States,Boardman,97818,OR,541,810
117,-97.822,37.751000000000005,US,USA,United States,,,,,
118,-97.822,37.751000000000005,US,USA,United States,,,,,
119,-97.822,37.751000000000005,US,USA,United States,,,,,
120,-84.636,42.72569999999999,US,USA,United States,Lansing,48917,MI,517,551
121,-74.0052,40.72139999999999,US,USA,United States,New York,10013,NY,212,501
122,-97.822,37.751000000000005,US,USA,United States,,,,,
123,-97.822,37.751000000000005,US,USA,United States,,,,,
124,-97.822,37.751000000000005,US,USA,United States,,,,,
125,-97.822,37.751000000000005,US,USA,United States,,,,,
126,-97.822,37.751000000000005,US,USA,United States,,,,,
127,-95.4909,29.748199999999997,US,USA,United States,Houston,77057,TX,713,618
128,-84.636,42.72569999999999,US,USA,United States,Lansing,48917,MI,517,551
129,-74.2307,40.46520000000001,US,USA,United States,Matawan,07747,NJ,732,501
130,-97.822,37.751000000000005,US,USA,United States,,,,,
131,-97.822,37.751000000000005,US,USA,United States,,,,,
132,-77.4728,39.048100000000005,US,USA,United States,Ashburn,20149,VA,703,511
133,-97.822,37.751000000000005,US,USA,United States,,,,,
134,-118.2606,34.072900000000004,US,USA,United States,Los Angeles,90012,CA,213,803
135,-97.822,37.751000000000005,US,USA,United States,,,,,
136,-97.822,37.751000000000005,US,USA,United States,,,,,
137,-97.822,37.751000000000005,US,USA,United States,,,,,
138,-97.822,37.751000000000005,US,USA,United States,,,,,
139,-75.4083,40.0548,US,USA,United States,Wayne,19087,PA,610,504
140,-94.4253,32.5352,US,USA,United States,Marshall,75670,TX,903,612
141,-82.6341,27.7723,US,USA,United States,Saint Petersburg,33701,FL,727,539
142,-97.822,37.751000000000005,US,USA,United States,,,,,
143,-97.822,37.751000000000005,US,USA,United States,,,,,
144,-97.822,37.751000000000005,US,USA,United States,,,,,
145,-88.5065,44.2586,US,USA,United States,Appleton,54914,WI,920,658
146,-97.822,37.751000000000005,US,USA,United States,,,,,
147,-97.822,37.751000000000005,US,USA,United States,,,,,
148,-117.9293,33.8682,US,USA,United States,Fullerton,92832,CA,714,803
149,-97.822,37.751000000000005,US,USA,United States,,,,,
150,-88.9746,40.14619999999999,US,USA,United States,Clinton,61727,IL,217,648
151,-111.6133,40.21809999999999,US,USA,United States,Provo,84606,UT,801,770
152,-97.822,37.751000000000005,US,USA,United States,,,,,
153,-81.5401,30.1438,US,USA,United States,Jacksonville,32258,FL,904,561
154,-97.822,37.751000000000005,US,USA,United States,,,,,
155,-97.822,37.751000000000005,US,USA,United States,,,,,
156,-117.9939,33.7474,US,USA,United States,Westminster,92683,CA,714,803
157,-90.295,38.58170000000001,US,USA,United States,Saint Louis,63109,MO,314,609
158,-119.2267,34.28630000000001,US,USA,United States,Ventura,93003,CA,805,803
159,-77.4728,39.048100000000005,US,USA,United States,Ashburn,20149,VA,703,511
160,-97.822,37.751000000000005,US,USA,United States,,,,,
161,-97.822,37.751000000000005,US,USA,United States,,,,,
162,-96.1856,41.16210000000001,US,USA,United States,Omaha,68136,NE,402,652
163,-81.9743,30.2098,US,USA,United States,Jacksonville,32234,FL,904,561
164,-87.8413,35.61240000000001,US,USA,United States,Linden,37096,TN,931,659
165,-97.3604,27.663700000000006,US,USA,United States,Corpus Christi,78414,TX,361,600
166,-121.8914,37.33869999999999,US,USA,United States,San Jose,95113,CA,408,807
167,-97.822,37.751000000000005,US,USA,United States,,,,,
168,-73.9072,41.52770000000001,US,USA,United States,Fishkill,12524,NY,845,501
169,-97.822,37.751000000000005,US,USA,United States,,,,,
170,-97.822,37.751000000000005,US,USA,United States,,,,,
171,-80.1801,25.927400000000006,US,USA,United States,Miami,33162,FL,305,528
172,-78.8781,42.88640000000001,US,USA,United States,Buffalo,14202,NY,716,514
173,-82.9378,40.08420000000001,US,USA,United States,Columbus,43231,OH,614,535
174,-97.822,37.751000000000005,US,USA,United States,,,,,
175,-97.822,37.751000000000005,US,USA,United States,,,,,
176,-97.822,37.751000000000005,US,USA,United States,,,,,
177,-74.0052,40.72139999999999,US,USA,United States,New York,10013,NY,212,501
178,-111.6133,40.21809999999999,US,USA,United States,Provo,84606,UT,801,770
179,-87.6376,41.88239999999999,US,USA,United States,Chicago,60606,IL,312,602
180,-87.9901,42.01519999999999,US,USA,United States,Elk Grove Village,60007,IL,847,602
181,-97.822,37.751000000000005,US,USA,United States,,,,,
182,-76.2001,43.18430000000001,US,USA,United States,Clay,13041,NY,315,555
183,-83.7113,42.32409999999999,US,USA,United States,Ann Arbor,48105,MI,734,505
184,-97.822,37.751000000000005,US,USA,United States,,,,,
185,-97.822,37.751000000000005,US,USA,United States,,,,,
186,-97.822,37.751000000000005,US,USA,United States,,,,,
187,-97.822,37.751000000000005,US,USA,United States,,,,,
188,-97.822,37.751000000000005,US,USA,United States,,,,,
189,-97.822,37.751000000000005,US,USA,United States,,,,,
190,-73.5299,40.86609999999999,US,USA,United States,Oyster Bay,11771,NY,516,501
191,-97.822,37.751000000000005,US,USA,United States,,,,,
192,-97.822,37.751000000000005,US,USA,United States,,,,,
193,-97.822,37.751000000000005,US,USA,United States,,,,,
194,-122.0574,37.41919999999999,US,USA,United States,Mountain View,94043,CA,650,807
195,-122.3341,47.610299999999995,US,USA,United States,Seattle,98101,WA,206,819
196,-81.5453,41.588899999999995,US,USA,United States,Cleveland,44119,OH,216,510
197,-76.5921,38.51849999999999,US,USA,United States,Prince Frederick,20678,MD,410,511
198,-122.0574,37.41919999999999,US,USA,United States,Mountain View,94043,CA,650,807
199,-97.822,37.751000000000005,US,USA,United States,,,,,
200,-122.34190000000001,47.6738,US,USA,United States,Seattle,98103,WA,206,819
201,-97.822,37.751000000000005,US,USA,United States,,,,,
202,-97.822,37.751000000000005,US,USA,United States,,,,,
203,-117.6555,33.98689999999999,US,USA,United States,Chino,91710,CA,909,803
204,-97.822,37.751000000000005,US,USA,United States,,,,,
205,-97.822,37.751000000000005,US,USA,United States,,,,,
206,-97.822,37.751000000000005,US,USA,United States,,,,,
207,-97.822,37.751000000000005,US,USA,United States,,,,,
208,-97.822,37.751000000000005,US,USA,United States,,,,,
209,-104.9059,41.10339999999999,US,USA,United States,Cheyenne,82001,WY,307,759
210,-94.5159,39.21459999999999,US,USA,United States,Kansas City,64119,MO,816,616
211,-90.627,38.8022,US,USA,United States,Saint Peters,63376,MO,636,609
212,-97.822,37.751000000000005,US,USA,United States,,,,,
213,-121.8914,37.33879999999999,US,USA,United States,San Jose,95141,CA,408,807
214,-97.822,37.751000000000005,US,USA,United States,,,,,
215,-75.4083,40.0548,US,USA,United States,Wayne,19087,PA,610,504
216,-72.9994,40.76990000000001,US,USA,United States,Patchogue,11772,NY,631,501
217,-97.822,37.751000000000005,US,USA,United States,,,,,
218,-97.822,37.751000000000005,US,USA,United States,,,,,
219,-97.822,37.751000000000005,US,USA,United States,,,,,
220,-97.822,37.751000000000005,US,USA,United States,,,,,
221,-97.822,37.751000000000005,US,USA,United States,,,,,
222,-98.4814,29.535599999999988,US,USA,United States,San Antonio,78216,TX,210,641
223,-97.822,37.751000000000005,US,USA,United States,,,,,
224,-88.1473,41.7859,US,USA,United States,Naperville,60566,IL,630,602
225,-78.3514,35.481300000000005,US,USA,United States,Smithfield,27577,NC,919,560
226,-75.7044,39.6155,US,USA,United States,Newark,19702,DE,302,504
227,-118.2641,34.04939999999999,US,USA,United States,Los Angeles,90014,CA,213,803
228,-97.822,37.751000000000005,US,USA,United States,,,,,
229,-97.822,37.751000000000005,US,USA,United States,,,,,
230,-97.822,37.751000000000005,US,USA,United States,,,,,
231,-119.688,45.86959999999999,US,USA,United States,Boardman,97818,OR,541,810
232,-97.822,37.751000000000005,US,USA,United States,,,,,
233,-97.822,37.751000000000005,US,USA,United States,,,,,
234,-97.822,37.751000000000005,US,USA,United States,,,,,
235,-97.822,37.751000000000005,US,USA,United States,,,,,
236,-122.0574,37.41919999999999,US,USA,United States,Mountain View,94043,CA,650,807
237,-97.822,37.751000000000005,US,USA,United States,,,,,
238,-97.822,37.751000000000005,US,USA,United States,,,,,
239,-95.4342,29.834000000000003,US,USA,United States,Houston,77201,TX,214,618
240,-97.822,37.751000000000005,US,USA,United States,,,,,
241,-97.822,37.751000000000005,US,USA,United States,,,,,
242,-84.636,42.72569999999999,US,USA,United States,Lansing,48917,MI,517,551
243,-122.0574,37.41919999999999,US,USA,United States,Mountain View,94043,CA,650,807
244,-97.822,37.751000000000005,US,USA,United States,,,,,
245,-122.2444,47.7542,US,USA,United States,Kenmore,98028,WA,425,819
246,-97.822,37.751000000000005,US,USA,United States,,,,,
247,-97.822,37.751000000000005,US,USA,United States,,,,,
248,-82.4013,28.001000000000005,US,USA,United States,Tampa,33610,FL,813,539
249,-97.822,37.751000000000005,US,USA,United States,,,,,
250,-97.822,37.751000000000005,US,USA,United States,,,,,
251,-97.822,37.751000000000005,US,USA,United States,,,,,
252,-73.9972,40.7517,US,USA,United States,New York,10001,NY,212,501
253,-117.8535,34.01150000000001,US,USA,United States,Walnut,91789,CA,909,803
254,-97.822,37.751000000000005,US,USA,United States,,,,,
255,-111.8906,33.61189999999999,US,USA,United States,Scottsdale,85260,AZ,480,753
256,-122.0574,37.41919999999999,US,USA,United States,Mountain View,94043,CA,650,807
257,-97.822,37.751000000000005,US,USA,United States,,,,,
258,-121.8914,37.33879999999999,US,USA,United States,San Jose,95141,CA,408,807
259,-97.822,37.751000000000005,US,USA,United States,,,,,
260,-79.6859,40.08179999999999,US,USA,United States,Dawson,15428,PA,724,508
261,-97.822,37.751000000000005,US,USA,United States,,,,,
262,-97.822,37.751000000000005,US,USA,United States,,,,,
263,-118.2641,34.04939999999999,US,USA,United States,Los Angeles,90014,CA,213,803
264,-118.27799999999999,34.058400000000006,US,USA,United States,Los Angeles,90017,CA,213,803
265,-122.0574,37.41919999999999,US,USA,United States,Mountain View,94043,CA,650,807
266,-97.822,37.751000000000005,US,USA,United States,,,,,
267,-97.822,37.751000000000005,US,USA,United States,,,,,
268,-77.4728,39.048100000000005,US,USA,United States,Ashburn,20149,VA,703,511
269,-97.822,37.751000000000005,US,USA,United States,,,,,
270,-97.822,37.751000000000005,US,USA,United States,,,,,
271,-90.1922,38.63120000000001,US,USA,United States,Saint Louis,63101,MO,314,609
272,-97.822,37.751000000000005,US,USA,United States,,,,,
273,-81.1893,28.58869999999999,US,USA,United States,Orlando,32826,FL,407,534
274,-97.822,37.751000000000005,US,USA,United States,,,,,
275,-116.2838,43.632000000000005,US,USA,United States,Boise,83704,ID,208,757
276,-122.3123,47.542,US,USA,United States,Seattle,98108,WA,206,819
277,-122.6005,45.48179999999999,US,USA,United States,Portland,97206,OR,503,820
278,-97.822,37.751000000000005,US,USA,United States,,,,,
279,-97.822,37.751000000000005,US,USA,United States,,,,,
280,-95.6491,29.915600000000012,US,USA,United States,Houston,77095,TX,281,618
281,-122.0574,37.41919999999999,US,USA,United States,Mountain View,94043,CA,650,807
282,-97.822,37.751000000000005,US,USA,United States,,,,,
283,-116.1853,43.71350000000001,US,USA,United States,Boise,83702,ID,208,757
284,-97.822,37.751000000000005,US,USA,United States,,,,,
285,-95.4739,29.830099999999987,US,USA,United States,Houston,77092,TX,713,618
286,-86.158,39.768400000000014,US,USA,United States,Indianapolis,46255,IN,317,527
287,-97.822,37.751000000000005,US,USA,United States,,,,,
288,-97.822,37.751000000000005,US,USA,United States,,,,,
289,-97.822,37.751000000000005,US,USA,United States,,,,,
290,-95.4739,29.830099999999987,US,USA,United States,Houston,77092,TX,713,618
291,-97.822,37.751000000000005,US,USA,United States,,,,,
292,-97.822,37.751000000000005,US,USA,United States,,,,,
293,-97.822,37.751000000000005,US,USA,United States,,,,,
294,-122.0574,37.41919999999999,US,USA,United States,Mountain View,94043,CA,650,807
295,-111.8906,33.61189999999999,US,USA,United States,Scottsdale,85260,AZ,480,753
296,-118.27799999999999,34.058400000000006,US,USA,United States,Los Angeles,90017,CA,213,803
297,-97.822,37.751000000000005,US,USA,United States,,,,,
298,-97.822,37.751000000000005,US,USA,United States,,,,,
299,-97.822,37.751000000000005,US,USA,United States,,,,,
300,-118.27799999999999,34.058400000000006,US,USA,United States,Los Angeles,90017,CA,213,803
301,-97.822,37.751000000000005,US,USA,United States,,,,,
302,-82.6341,27.7723,US,USA,United States,Saint Petersburg,33701,FL,727,539
303,-122.3341,47.610299999999995,US,USA,United States,Seattle,98101,WA,206,819
304,-97.822,37.751000000000005,US,USA,United States,,,,,
305,-97.822,37.751000000000005,US,USA,United States,,,,,
306,-97.822,37.751000000000005,US,USA,United States,,,,,
307,-97.822,37.751000000000005,US,USA,United States,,,,,
308,-97.822,37.751000000000005,US,USA,United States,,,,,
309,-122.0574,37.41919999999999,US,USA,United States,Mountain View,94043,CA,650,807
310,-97.822,37.751000000000005,US,USA,United States,,,,,
311,-97.822,37.751000000000005,US,USA,United States,,,,,
312,-87.6901,42.0411,US,USA,United States,Evanston,60204,IL,847,602
313,-121.8914,37.33869999999999,US,USA,United States,San Jose,95113,CA,408,807
314,-97.822,37.751000000000005,US,USA,United States,,,,,
315,-97.822,37.751000000000005,US,USA,United States,,,,,
316,-97.822,37.751000000000005,US,USA,United States,,,,,
317,-97.822,37.751000000000005,US,USA,United States,,,,,
318,-78.1704,38.71629999999999,US,USA,United States,Washington,22747,VA,540,511
319,-97.822,37.751000000000005,US,USA,United States,,,,,
320,-97.822,37.751000000000005,US,USA,United States,,,,,
321,-97.822,37.751000000000005,US,USA,United States,,,,,
322,-97.822,37.751000000000005,US,USA,United States,,,,,
323,-75.9534,41.29730000000001,US,USA,United States,Shavertown,18708,PA,570,577
324,-118.2641,34.04939999999999,US,USA,United States,Los Angeles,90014,CA,213,803
325,-97.822,37.751000000000005,US,USA,United States,,,,,
326,-97.822,37.751000000000005,US,USA,United States,,,,,
327,-111.6133,40.21809999999999,US,USA,United States,Provo,84606,UT,801,770
328,-97.822,37.751000000000005,US,USA,United States,,,,,
329,-117.13239999999999,32.8073,US,USA,United States,San Diego,92123,CA,858,825
330,-97.822,37.751000000000005,US,USA,United States,,,,,
331,-97.822,37.751000000000005,US,USA,United States,,,,,
332,-97.822,37.751000000000005,US,USA,United States,,,,,
333,-97.822,37.751000000000005,US,USA,United States,,,,,
334,-97.822,37.751000000000005,US,USA,United States,,,,,
335,-97.822,37.751000000000005,US,USA,United States,,,,,
336,-97.822,37.751000000000005,US,USA,United States,,,,,
337,-78.9834,40.29230000000001,US,USA,United States,Johnstown,15905,PA,814,574
338,-83.6286,32.5814,US,USA,United States,Warner Robins,31088,GA,478,503
339,-106.3523,42.82599999999999,US,USA,United States,Casper,82604,WY,307,767
340,-84.4798,38.97649999999999,US,USA,United States,Latonia,41015,KY,859,515
341,-97.822,37.751000000000005,US,USA,United States,,,,,
342,-97.822,37.751000000000005,US,USA,United States,,,,,
343,-97.822,37.751000000000005,US,USA,United States,,,,,
344,-97.822,37.751000000000005,US,USA,United States,,,,,
345,-95.4739,29.830099999999987,US,USA,United States,Houston,77092,TX,713,618
346,-97.822,37.751000000000005,US,USA,United States,,,,,
347,-96.4728,41.4803,US,USA,United States,Fremont,68025,NE,402,652
348,-86.6332,34.7415,US,USA,United States,Huntsville,35816,AL,256,691
349,-80.1826,25.780599999999993,US,USA,United States,Miami,33132,FL,305,528
350,-97.822,37.751000000000005,US,USA,United States,,,,,
351,-97.822,37.751000000000005,US,USA,United States,,,,,
352,-97.822,37.751000000000005,US,USA,United States,,,,,
353,-73.9975,40.73079999999999,US,USA,United States,New York,10011,NY,212,501
354,-122.6802,45.5171,US,USA,United States,Portland,97205,OR,503,820
355,-97.822,37.751000000000005,US,USA,United States,,,,,
356,-97.822,37.751000000000005,US,USA,United States,,,,,
357,-97.822,37.751000000000005,US,USA,United States,,,,,
358,-95.4739,29.830099999999987,US,USA,United States,Houston,77092,TX,713,618
359,-97.822,37.751000000000005,US,USA,United States,,,,,
360,-122.0574,37.41919999999999,US,USA,United States,Mountain View,94043,CA,650,807
361,-97.822,37.751000000000005,US,USA,United States,,,,,
362,-97.822,37.751000000000005,US,USA,United States,,,,,
363,-97.822,37.751000000000005,US,USA,United States,,,,,
364,-97.7373,30.175999999999988,US,USA,United States,Austin,78744,TX,512,635
365,-97.822,37.751000000000005,US,USA,United States,,,,,
366,-97.822,37.751000000000005,US,USA,United States,,,,,
367,-74.0052,40.72139999999999,US,USA,United States,New York,10013,NY,212,501
368,-97.822,37.751000000000005,US,USA,United States,,,,,
369,-97.822,37.751000000000005,US,USA,United States,,,,,
370,-97.822,37.751000000000005,US,USA,United States,,,,,
371,-97.822,37.751000000000005,US,USA,United States,,,,,
372,-97.822,37.751000000000005,US,USA,United States,,,,,
373,-88.4046,40.2149,US,USA,United States,Mahomet,61853,IL,217,648
374,-73.7804,42.7526,US,USA,United States,Latham,12110,NY,518,532
375,-97.822,37.751000000000005,US,USA,United States,,,,,
376,-96.8,32.7877,US,USA,United States,Dallas,75201,TX,214,623
377,-87.6272,41.8776,US,USA,United States,Chicago,60604,IL,312,602
378,-97.822,37.751000000000005,US,USA,United States,,,,,
379,-97.822,37.751000000000005,US,USA,United States,,,,,
380,-97.822,37.751000000000005,US,USA,United States,,,,,
381,-77.2497,38.658199999999994,US,USA,United States,,,VA,,
382,-118.38839999999999,33.849199999999996,US,USA,United States,Redondo Beach,90277,CA,310,803
383,-97.822,37.751000000000005,US,USA,United States,,,,,
384,-97.822,37.751000000000005,US,USA,United States,,,,,
385,-97.822,37.751000000000005,US,USA,United States,,,,,
386,-97.822,37.751000000000005,US,USA,United States,,,,,
387,-115.0739,36.03120000000001,US,USA,United States,Henderson,89074,NV,702,839
388,-97.822,37.751000000000005,US,USA,United States,,,,,
389,-97.822,37.751000000000005,US,USA,United States,,,,,
390,-122.0574,37.41919999999999,US,USA,United States,Mountain View,94043,CA,650,807
391,-97.822,37.751000000000005,US,USA,United States,,,,,
392,-96.8705,32.81479999999999,US,USA,United States,Dallas,75247,TX,214,623
393,-105.2142,39.9469,US,USA,United States,Louisville,80027,CO,303,751
394,-97.822,37.751000000000005,US,USA,United States,,,,,
395,-97.822,37.751000000000005,US,USA,United States,,,,,
396,-97.822,37.751000000000005,US,USA,United States,,,,,
397,-119.688,45.86959999999999,US,USA,United States,Boardman,97818,OR,541,810
398,-97.822,37.751000000000005,US,USA,United States,,,,,
399,-97.822,37.751000000000005,US,USA,United States,,,,,
400,-97.822,37.751000000000005,US,USA,United States,,,,,
401,-86.1675,40.52860000000001,US,USA,United States,Kokomo,46901,IN,765,527
402,-121.8914,37.33879999999999,US,USA,United States,San Jose,95141,CA,408,807
403,-97.822,37.751000000000005,US,USA,United States,,,,,
404,-118.2645,34.15260000000001,US,USA,United States,Glendale,91203,CA,818,803
405,-111.6133,40.21809999999999,US,USA,United States,Provo,84606,UT,801,770
406,-97.822,37.751000000000005,US,USA,United States,,,,,
407,-75.4083,40.0548,US,USA,United States,Wayne,19087,PA,610,504
408,-97.822,37.751000000000005,US,USA,United States,,,,,
409,-122.0574,37.41919999999999,US,USA,United States,Mountain View,94043,CA,650,807
410,-95.4739,29.830099999999987,US,USA,United States,Houston,77092,TX,713,618
411,-118.0496,34.125,US,USA,United States,Arcadia,91007,CA,626,803
412,-97.822,37.751000000000005,US,USA,United States,,,,,
413,-97.822,37.751000000000005,US,USA,United States,,,,,
414,-118.50710000000001,34.29419999999999,US,USA,United States,Granada Hills,91344,CA,818,803
415,-97.822,37.751000000000005,US,USA,United States,,,,,
416,-97.822,37.751000000000005,US,USA,United States,,,,,
417,-97.822,37.751000000000005,US,USA,United States,,,,,
418,-95.4739,29.830099999999987,US,USA,United States,Houston,77092,TX,713,618
419,-77.4728,39.048100000000005,US,USA,United States,Ashburn,20149,VA,703,511
420,-97.822,37.751000000000005,US,USA,United States,,,,,
421,-118.2924,33.8338,US,USA,United States,Torrance,90502,CA,310,803
422,-111.6133,40.21809999999999,US,USA,United States,Provo,84606,UT,801,770
423,-97.822,37.751000000000005,US,USA,United States,,,,,
424,-94.5786,39.09970000000001,US,USA,United States,Kansas City,64121,MO,816,616
425,-87.1057,34.76750000000001,US,USA,United States,Athens,35611,AL,256,691
426,-97.822,37.751000000000005,US,USA,United States,,,,,
427,-97.822,37.751000000000005,US,USA,United States,,,,,
428,-97.822,37.751000000000005,US,USA,United States,,,,,
429,-97.822,37.751000000000005,US,USA,United States,,,,,
430,-97.822,37.751000000000005,US,USA,United States,,,,,
431,-118.4015,34.406499999999994,US,USA,United States,Canyon Country,91387,CA,661,803
432,-122.34219999999999,47.6344,US,USA,United States,Seattle,98109,WA,206,819
433,-97.822,37.751000000000005,US,USA,United States,,,,,
434,-73.7934,42.67660000000001,US,USA,United States,Albany,12206,NY,518,532
435,-74.2294,40.69319999999999,US,USA,United States,Hillside,07205,NJ,908,501
436,-97.822,37.751000000000005,US,USA,United States,,,,,
437,-97.822,37.751000000000005,US,USA,United States,,,,,
438,-97.822,37.751000000000005,US,USA,United States,,,,,
439,-97.822,37.751000000000005,US,USA,United States,,,,,
440,-97.822,37.751000000000005,US,USA,United States,,,,,
441,-116.97749999999999,33.9494,US,USA,United States,Beaumont,92223,CA,951,803
442,-118.244,34.05439999999999,US,USA,United States,,,CA,,
443,-81.2723,31.995100000000008,US,USA,United States,Savannah,31419,GA,912,507
444,-97.822,37.751000000000005,US,USA,United States,,,,,
445,-93.9314,32.483599999999996,US,USA,United States,Shreveport,71119,LA,318,612
446,-97.2126,32.80080000000001,US,USA,United States,Fort Worth,76118,TX,817,623
447,-82.1527,28.09960000000001,US,USA,United States,Plant City,33565,FL,813,539
448,-97.822,37.751000000000005,US,USA,United States,,,,,
449,-118.0089,33.93289999999999,US,USA,United States,Whittier,90604,CA,562,803
450,-97.822,37.751000000000005,US,USA,United States,,,,,
451,-97.822,37.751000000000005,US,USA,United States,,,,,
452,-97.822,37.751000000000005,US,USA,United States,,,,,
453,-73.8287,40.87280000000001,US,USA,United States,Bronx,10475,NY,718,501
454,-97.822,37.751000000000005,US,USA,United States,,,,,
455,-97.822,37.751000000000005,US,USA,United States,,,,,
456,-84.636,42.72569999999999,US,USA,United States,Lansing,48917,MI,517,551
457,-117.8505,33.83019999999999,US,USA,United States,Orange,92865,CA,714,803
458,-97.822,37.751000000000005,US,USA,United States,,,,,
459,-97.822,37.751000000000005,US,USA,United States,,,,,
460,-117.1894,32.7792,US,USA,United States,San Diego,92110,CA,619,825
461,-117.904,33.97819999999999,US,USA,United States,Rowland Heights,91748,CA,626,803
462,-97.822,37.751000000000005,US,USA,United States,,,,,
463,-73.1365,41.1737,US,USA,United States,Stratford,06615,CT,203,501
464,-97.822,37.751000000000005,US,USA,United States,,,,,
465,-96.8217,32.778699999999986,US,USA,United States,,,TX,,
466,-97.822,37.751000000000005,US,USA,United States,,,,,
467,-122.3284,47.602599999999995,US,USA,United States,Seattle,98104,WA,206,819
468,-111.6133,40.21809999999999,US,USA,United States,Provo,84606,UT,801,770
469,-87.5332,38.0967,US,USA,United States,Evansville,47725,IN,812,649
470,-97.822,37.751000000000005,US,USA,United States,,,,,
471,-74.3296,40.6987,US,USA,United States,Springfield,07081,NJ,973,501
472,-76.8962,38.581500000000005,US,USA,United States,Waldorf,20602,MD,301,511
473,-97.822,37.751000000000005,US,USA,United States,,,,,
474,-102.0728,31.990199999999987,US,USA,United States,Midland,79701,TX,432,633
475,-118.4041,33.9571,US,USA,United States,Los Angeles,90045,CA,310,803
476,-97.822,37.751000000000005,US,USA,United States,,,,,
477,-97.822,37.751000000000005,US,USA,United States,,,,,
478,-97.822,37.751000000000005,US,USA,United States,,,,,
479,-111.6133,40.21809999999999,US,USA,United States,Provo,84606,UT,801,770
480,-77.4728,39.048100000000005,US,USA,United States,Ashburn,20149,VA,703,511
481,-121.63980000000001,38.4829,US,USA,United States,Davis,95616,CA,530,862
482,-97.822,37.751000000000005,US,USA,United States,,,,,
483,-97.822,37.751000000000005,US,USA,United States,,,,,
484,-118.3928,34.02019999999999,US,USA,United States,Culver City,90232,CA,310,803
485,-75.2707,40.00290000000001,US,USA,United States,Wynnewood,19096,PA,610,504
486,-97.822,37.751000000000005,US,USA,United States,,,,,
487,-97.822,37.751000000000005,US,USA,United States,,,,,
488,-97.7982,30.415400000000005,US,USA,United States,Austin,78750,TX,512,635
489,-97.822,37.751000000000005,US,USA,United States,,,,,
490,-97.822,37.751000000000005,US,USA,United States,,,,,
491,-97.822,37.751000000000005,US,USA,United States,,,,,
492,-97.822,37.751000000000005,US,USA,United States,,,,,
493,-97.822,37.751000000000005,US,USA,United States,,,,,
494,-97.822,37.751000000000005,US,USA,United States,,,,,
495,-97.822,37.751000000000005,US,USA,United States,,,,,
496,-122.0574,37.41919999999999,US,USA,United States,Mountain View,94043,CA,650,807
497,-95.4739,29.830099999999987,US,USA,United States,Houston,77092,TX,713,618
498,-117.8612,33.92689999999999,US,USA,United States,Brea,92821,CA,714,803
499,-123.40209999999999,43.217899999999986,US,USA,United States,Roseburg,97470,OR,541,801
500,-81.1893,28.58869999999999,US,USA,United States,Orlando,32826,FL,407,534
501,-82.5117,27.88669999999999,US,USA,United States,Tampa,33611,FL,813,539
502,-97.822,37.751000000000005,US,USA,United States,,,,,
503,-97.822,37.751000000000005,US,USA,United States,,,,,
504,-122.0574,37.41919999999999,US,USA,United States,Mountain View,94043,CA,650,807
505,-122.0574,37.41919999999999,US,USA,United States,Mountain View,94043,CA,650,807
506,-86.8093,36.17590000000001,US,USA,United States,Nashville,37208,TN,615,659
507,-73.4316,41.0917,US,USA,United States,Norwalk,06854,CT,203,501
508,-97.822,37.751000000000005,US,USA,United States,,,,,
509,-97.822,37.751000000000005,US,USA,United States,,,,,
510,-87.6027,41.780399999999986,US,USA,United States,Chicago,60637,IL,773,602
511,-97.822,37.751000000000005,US,USA,United States,,,,,
512,-97.822,37.751000000000005,US,USA,United States,,,,,
513,-111.8906,33.61189999999999,US,USA,United States,Scottsdale,85260,AZ,480,753
514,-73.8812,40.71780000000001,US,USA,United States,Middle Village,11379,NY,718,501
515,-97.822,37.751000000000005,US,USA,United States,,,,,
516,-97.822,37.751000000000005,US,USA,United States,,,,,
517,-87.6291,41.848299999999995,US,USA,United States,Chicago,60616,IL,312,602
518,-97.822,37.751000000000005,US,USA,United States,,,,,
519,-79.9791,40.42230000000001,US,USA,United States,Pittsburgh,15203,PA,412,508
520,-115.1372,36.17500000000001,US,USA,United States,Las Vegas,89169,NV,702,839
521,-97.822,37.751000000000005,US,USA,United States,,,,,
522,-84.636,42.72569999999999,US,USA,United States,Lansing,48917,MI,517,551
523,-117.8535,34.01150000000001,US,USA,United States,Walnut,91789,CA,909,803
524,-97.822,37.751000000000005,US,USA,United States,,,,,
525,-111.8906,33.61189999999999,US,USA,United States,Scottsdale,85260,AZ,480,753
526,-97.822,37.751000000000005,US,USA,United States,,,,,
527,-97.822,37.751000000000005,US,USA,United States,,,,,
528,-78.1704,38.71629999999999,US,USA,United States,Washington,22747,VA,540,511
529,-94.6202,38.95859999999999,US,USA,United States,Leawood,66206,KS,913,616
530,-97.822,37.751000000000005,US,USA,United States,,,,,
531,-97.822,37.751000000000005,US,USA,United States,,,,,
532,-97.822,37.751000000000005,US,USA,United States,,,,,
533,-77.0632,38.8322,US,USA,United States,Alexandria,22305,VA,703,511
534,-97.822,37.751000000000005,US,USA,United States,,,,,
535,-97.822,37.751000000000005,US,USA,United States,,,,,
536,-118.2641,34.04939999999999,US,USA,United States,Los Angeles,90014,CA,213,803
537,-111.6133,40.21809999999999,US,USA,United States,Provo,84606,UT,801,770
538,-77.4728,39.048100000000005,US,USA,United States,Ashburn,20149,VA,703,511
539,-97.822,37.751000000000005,US,USA,United States,,,,,
540,-97.822,37.751000000000005,US,USA,United States,,,,,
541,-97.822,37.751000000000005,US,USA,United States,,,,,
542,-97.822,37.751000000000005,US,USA,United States,,,,,
543,-111.8906,33.61189999999999,US,USA,United States,Scottsdale,85260,AZ,480,753
544,-122.348,47.61449999999999,US,USA,United States,Seattle,98121,WA,206,819
545,-122.34219999999999,47.6344,US,USA,United States,Seattle,98109,WA,206,819
546,-97.822,37.751000000000005,US,USA,United States,,,,,
547,-83.0235,39.96530000000001,US,USA,United States,Columbus,43215,OH,614,535
548,-97.822,37.751000000000005,US,USA,United States,,,,,
549,-97.822,37.751000000000005,US,USA,United States,,,,,
550,-77.4728,39.048100000000005,US,USA,United States,Ashburn,20149,VA,703,511
551,-81.1893,28.58869999999999,US,USA,United States,Orlando,32826,FL,407,534
552,-97.822,37.751000000000005,US,USA,United States,,,,,
553,-97.822,37.751000000000005,US,USA,United States,,,,,
554,-111.8906,33.61189999999999,US,USA,United States,Scottsdale,85260,AZ,480,753
555,-97.822,37.751000000000005,US,USA,United States,,,,,
556,-97.822,37.751000000000005,US,USA,United States,,,,,
557,-97.822,37.751000000000005,US,USA,United States,,,,,
558,-97.822,37.751000000000005,US,USA,United States,,,,,
559,-122.0574,37.41919999999999,US,USA,United States,Mountain View,94043,CA,650,807
560,-97.822,37.751000000000005,US,USA,United States,,,,,
561,-88.2104,41.89689999999999,US,USA,United States,West Chicago,60185,IL,630,602
562,-97.822,37.751000000000005,US,USA,United States,,,,,
563,-93.7211,44.40270000000001,US,USA,United States,Le Center,56057,MN,507,613
564,-97.822,37.751000000000005,US,USA,United States,,,,,
565,-118.4041,33.9571,US,USA,United States,Los Angeles,90045,CA,310,803
566,-73.9469,40.71109999999999,US,USA,United States,,,NY,,
567,-117.904,33.97819999999999,US,USA,United States,Rowland Heights,91748,CA,626,803
568,-97.822,37.751000000000005,US,USA,United States,,,,,
569,-156.2581,20.701999999999998,US,USA,United States,Kula,96790,HI,808,744
570,-111.6133,40.21809999999999,US,USA,United States,Provo,84606,UT,801,770
571,-97.822,37.751000000000005,US,USA,United States,,,,,
572,-122.0574,37.41919999999999,US,USA,United States,Mountain View,94043,CA,650,807
573,-117.85560000000001,33.75059999999999,US,USA,United States,Santa Ana,92701,CA,714,803
574,-78.8781,42.88640000000001,US,USA,United States,Buffalo,14202,NY,716,514
575,-97.822,37.751000000000005,US,USA,United States,,,,,
576,-73.9512,40.78049999999999,US,USA,United States,New York,10128,NY,212,501
577,-97.822,37.751000000000005,US,USA,United States,,,,,
578,-97.822,37.751000000000005,US,USA,United States,,,,,
579,-97.822,37.751000000000005,US,USA,United States,,,,,
580,-90.1922,38.63120000000001,US,USA,United States,Saint Louis,63101,MO,314,609
581,-122.0574,37.41919999999999,US,USA,United States,Mountain View,94043,CA,650,807
582,-97.822,37.751000000000005,US,USA,United States,,,,,
583,-83.263,42.518100000000004,US,USA,United States,Franklin,48025,MI,248,505
584,-95.4739,29.830099999999987,US,USA,United States,Houston,77092,TX,713,618
585,-82.3966,27.500100000000003,US,USA,United States,Bradenton,34212,FL,941,539
586,-77.3489,38.93109999999999,US,USA,United States,Reston,20191,VA,703,511
587,-97.822,37.751000000000005,US,USA,United States,,,,,
588,-73.7804,42.7526,US,USA,United States,Latham,12110,NY,518,532
589,-97.822,37.751000000000005,US,USA,United States,,,,,
590,-97.822,37.751000000000005,US,USA,United States,,,,,
591,-97.822,37.751000000000005,US,USA,United States,,,,,
592,-87.6272,41.8776,US,USA,United States,Chicago,60604,IL,312,602
593,-74.0052,40.72139999999999,US,USA,United States,New York,10013,NY,212,501
594,-118.244,34.05439999999999,US,USA,United States,Los Angeles,90009,CA,310,803
595,-118.4041,33.9571,US,USA,United States,Los Angeles,90045,CA,310,803
596,-77.4728,39.048100000000005,US,USA,United States,Ashburn,20149,VA,703,511
597,-119.688,45.86959999999999,US,USA,United States,Boardman,97818,OR,541,810
598,-97.822,37.751000000000005,US,USA,United States,,,,,
599,-97.822,37.751000000000005,US,USA,United States,,,,,
600,-97.822,37.751000000000005,US,USA,United States,,,,,
601,-97.822,37.751000000000005,US,USA,United States,,,,,
602,-87.7016,41.975899999999996,US,USA,United States,Chicago,60625,IL,773,602
603,-97.822,37.751000000000005,US,USA,United States,,,,,
604,-118.244,34.05439999999999,US,USA,United States,Los Angeles,90009,CA,310,803
605,-97.822,37.751000000000005,US,USA,United States,,,,,
606,-74.0052,40.72139999999999,US,USA,United States,New York,10013,NY,212,501
607,-97.822,37.751000000000005,US,USA,United States,,,,,
608,-97.822,37.751000000000005,US,USA,United States,,,,,
609,-73.99,41.155699999999996,US,USA,United States,New City,10956,NY,845,501
610,-97.822,37.751000000000005,US,USA,United States,,,,,
611,-122.0574,37.41919999999999,US,USA,United States,Mountain View,94043,CA,650,807
612,-75.1756,39.953,US,USA,United States,Philadelphia,19103,PA,215,504
613,-81.1893,28.58869999999999,US,USA,United States,Orlando,32826,FL,407,534
614,-77.0369,39.00460000000001,US,USA,United States,Silver Spring,20910,MD,301,511
615,-111.8906,33.61189999999999,US,USA,United States,Scottsdale,85260,AZ,480,753
616,-111.8906,33.61189999999999,US,USA,United States,Scottsdale,85260,AZ,480,753
617,-76.8268,39.2106,US,USA,United States,Columbia,21045,MD,410,512
618,-122.0574,37.41919999999999,US,USA,United States,Mountain View,94043,CA,650,807
619,-111.6133,40.21809999999999,US,USA,United States,Provo,84606,UT,801,770
620,-98.3994,29.58340000000001,US,USA,United States,San Antonio,78247,TX,210,641
621,-77.4728,39.048100000000005,US,USA,United States,Ashburn,20149,VA,703,511
622,-122.0574,37.41919999999999,US,USA,United States,Mountain View,94043,CA,650,807
623,-97.822,37.751000000000005,US,USA,United States,,,,,
624,-97.822,37.751000000000005,US,USA,United States,,,,,
625,-97.822,37.751000000000005,US,USA,United States,,,,,
626,-97.822,37.751000000000005,US,USA,United States,,,,,
627,-97.822,37.751000000000005,US,USA,United States,,,,,
628,-97.822,37.751000000000005,US,USA,United States,,,,,
629,-97.822,37.751000000000005,US,USA,United States,,,,,
630,-97.822,37.751000000000005,US,USA,United States,,,,,
631,-121.9829,37.56700000000001,US,USA,United States,Fremont,94536,CA,510,807
632,-97.822,37.751000000000005,US,USA,United States,,,,,
633,-118.2641,34.04939999999999,US,USA,United States,Los Angeles,90014,CA,213,803
634,-83.7409,42.27760000000001,US,USA,United States,Ann Arbor,48106,MI,734,505
635,-118.4015,34.406499999999994,US,USA,United States,Canyon Country,91387,CA,661,803
636,-97.822,37.751000000000005,US,USA,United States,,,,,
637,-97.822,37.751000000000005,US,USA,United States,,,,,
638,-119.688,45.86959999999999,US,USA,United States,Boardman,97818,OR,541,810
639,-111.8906,33.61189999999999,US,USA,United States,Scottsdale,85260,AZ,480,753
640,-97.822,37.751000000000005,US,USA,United States,,,,,
641,-97.822,37.751000000000005,US,USA,United States,,,,,
642,-97.822,37.751000000000005,US,USA,United States,,,,,
643,-122.0574,37.41919999999999,US,USA,United States,Mountain View,94043,CA,650,807
644,-86.0042,39.725300000000004,US,USA,United States,Indianapolis,46239,IN,317,527
645,-111.8906,33.61189999999999,US,USA,United States,Scottsdale,85260,AZ,480,753
646,-79.7369,40.608900000000006,US,USA,United States,Brackenridge,15014,PA,724,508
647,-97.822,37.751000000000005,US,USA,United States,,,,,
648,-97.822,37.751000000000005,US,USA,United States,,,,,
649,-117.9068,34.697599999999994,US,USA,United States,Lancaster,93535,CA,661,803
650,-73.6957,40.760099999999994,US,USA,United States,New Hyde Park,11042,NY,516,501
651,-95.6627,29.83269999999999,US,USA,United States,Houston,77084,TX,281,618
652,-97.822,37.751000000000005,US,USA,United States,,,,,
653,-97.822,37.751000000000005,US,USA,United States,,,,,
654,-97.822,37.751000000000005,US,USA,United States,,,,,
655,-97.822,37.751000000000005,US,USA,United States,,,,,
656,-122.798,45.4049,US,USA,United States,Portland,97224,OR,503,820
657,-122.0574,37.41919999999999,US,USA,United States,Mountain View,94043,CA,650,807
658,-97.822,37.751000000000005,US,USA,United States,,,,,
659,-81.3589,28.60239999999999,US,USA,United States,Winter Park,32789,FL,407,534
660,-97.822,37.751000000000005,US,USA,United States,,,,,
661,-97.822,37.751000000000005,US,USA,United States,,,,,
662,-115.2124,36.078100000000006,US,USA,United States,Las Vegas,89118,NV,702,839
663,-97.822,37.751000000000005,US,USA,United States,,,,,
664,-97.822,37.751000000000005,US,USA,United States,,,,,
665,-97.822,37.751000000000005,US,USA,United States,,,,,
666,-97.822,37.751000000000005,US,USA,United States,,,,,
667,-77.4728,39.048100000000005,US,USA,United States,Ashburn,20149,VA,703,511
668,-97.822,37.751000000000005,US,USA,United States,,,,,
669,-122.3341,47.610299999999995,US,USA,United States,Seattle,98101,WA,206,819
670,-97.822,37.751000000000005,US,USA,United States,,,,,
671,-118.2641,34.04939999999999,US,USA,United States,Los Angeles,90014,CA,213,803
672,-97.822,37.751000000000005,US,USA,United States,,,,,
673,-97.822,37.751000000000005,US,USA,United States,,,,,
674,-97.822,37.751000000000005,US,USA,United States,,,,,
675,-74.0052,40.72139999999999,US,USA,United States,New York,10013,NY,212,501
676,-122.0574,37.41919999999999,US,USA,United States,Mountain View,94043,CA,650,807
677,-122.0574,37.41919999999999,US,USA,United States,Mountain View,94043,CA,650,807
678,-75.2842,40.11580000000001,US,USA,United States,Plymouth Meeting,19462,PA,610,504
679,-86.9219,30.616199999999992,US,USA,United States,Milton,32583,FL,850,686
680,-97.822,37.751000000000005,US,USA,United States,,,,,
681,-97.822,37.751000000000005,US,USA,United States,,,,,
682,-97.822,37.751000000000005,US,USA,United States,,,,,
683,-78.1704,38.71629999999999,US,USA,United States,Washington,22747,VA,540,511
684,-97.822,37.751000000000005,US,USA,United States,,,,,
685,-81.4389,41.17410000000001,US,USA,United States,Stow,44224,OH,330,510
686,-97.822,37.751000000000005,US,USA,United States,,,,,
687,-97.822,37.751000000000005,US,USA,United States,,,,,
688,-122.0574,37.41919999999999,US,USA,United States,Mountain View,94043,CA,650,807
689,-75.5281,39.7157,US,USA,United States,Wilmington,19801,DE,302,504
690,-112.1115,33.38329999999999,US,USA,United States,Phoenix,85041,AZ,602,753
691,-97.822,37.751000000000005,US,USA,United States,,,,,
692,-119.688,45.86959999999999,US,USA,United States,Boardman,97818,OR,541,810
693,-118.3928,34.02019999999999,US,USA,United States,Culver City,90232,CA,310,803
694,-97.822,37.751000000000005,US,USA,United States,,,,,
695,-111.8906,33.61189999999999,US,USA,United States,Scottsdale,85260,AZ,480,753
696,-97.822,37.751000000000005,US,USA,United States,,,,,
697,-74.0052,40.72139999999999,US,USA,United States,New York,10013,NY,212,501
698,-97.822,37.751000000000005,US,USA,United States,,,,,
699,-111.9519,33.674800000000005,US,USA,United States,Phoenix,85054,AZ,480,753
700,-97.822,37.751000000000005,US,USA,United States,,,,,
701,-97.822,37.751000000000005,US,USA,United States,,,,,
702,-118.4298,34.03550000000001,US,USA,United States,Los Angeles,90064,CA,310,803
703,-97.822,37.751000000000005,US,USA,United States,,,,,
704,-97.822,37.751000000000005,US,USA,United States,,,,,
705,-111.6133,40.21809999999999,US,USA,United States,Provo,84606,UT,801,770
706,-97.822,37.751000000000005,US,USA,United States,,,,,
707,-122.0574,37.41919999999999,US,USA,United States,Mountain View,94043,CA,650,807
708,-97.822,37.751000000000005,US,USA,United States,,,,,
709,-97.822,37.751000000000005,US,USA,United States,,,,,
710,-94.7177,39.07339999999999,US,USA,United States,Kansas City,66106,KS,913,616
711,-97.822,37.751000000000005,US,USA,United States,,,,,
712,-97.822,37.751000000000005,US,USA,United States,,,,,
713,-122.40979999999999,48.79820000000001,US,USA,United States,Bellingham,98226,WA,360,819
714,-97.822,37.751000000000005,US,USA,United States,,,,,
715,-97.822,37.751000000000005,US,USA,United States,,,,,
716,-97.822,37.751000000000005,US,USA,United States,,,,,
717,-75.5281,39.7157,US,USA,United States,Wilmington,19801,DE,302,504
718,-97.822,37.751000000000005,US,USA,United States,,,,,
719,-84.636,42.72569999999999,US,USA,United States,Lansing,48917,MI,517,551
720,-97.822,37.751000000000005,US,USA,United States,,,,,
721,-77.4728,39.048100000000005,US,USA,United States,Ashburn,20149,VA,703,511
722,-97.822,37.751000000000005,US,USA,United States,,,,,
723,-97.822,37.751000000000005,US,USA,United States,,,,,
724,-86.7852,36.1866,US,USA,United States,Nashville,37232,TN,615,659
725,-118.4041,33.9571,US,USA,United States,Los Angeles,90045,CA,310,803
726,-97.822,37.751000000000005,US,USA,United States,,,,,
727,-118.2641,34.04939999999999,US,USA,United States,Los Angeles,90014,CA,213,803
728,-98.3987,29.4889,US,USA,United States,San Antonio,78218,TX,210,641
729,-97.822,37.751000000000005,US,USA,United States,,,,,
730,-97.822,37.751000000000005,US,USA,United States,,,,,
731,-87.6503,41.87450000000001,US,USA,United States,Chicago,60607,IL,312,602
732,-84.9,43.0496,US,USA,United States,Muir,48860,MI,989,551
733,-97.822,37.751000000000005,US,USA,United States,,,,,
734,-97.822,37.751000000000005,US,USA,United States,,,,,
735,-97.822,37.751000000000005,US,USA,United States,,,,,
736,-97.822,37.751000000000005,US,USA,United States,,,,,
737,-95.4739,29.830099999999987,US,USA,United States,Houston,77092,TX,713,618
738,-122.0574,37.41919999999999,US,USA,United States,Mountain View,94043,CA,650,807
739,-97.822,37.751000000000005,US,USA,United States,,,,,
740,-97.822,37.751000000000005,US,USA,United States,,,,,
741,-117.1412,33.578900000000004,US,USA,United States,Murrieta,92563,CA,951,803
742,-97.822,37.751000000000005,US,USA,United States,,,,,
743,-97.822,37.751000000000005,US,USA,United States,,,,,
744,-97.822,37.751000000000005,US,USA,United States,,,,,
745,-118.4682,34.0119,US,USA,United States,Santa Monica,90405,CA,310,803
746,-111.8906,33.61189999999999,US,USA,United States,Scottsdale,85260,AZ,480,753
747,-97.822,37.751000000000005,US,USA,United States,,,,,
748,-97.822,37.751000000000005,US,USA,United States,,,,,
749,-83.1212,41.12450000000001,US,USA,United States,Tiffin,44883,OH,419,547
750,-97.822,37.751000000000005,US,USA,United States,,,,,
751,-97.822,37.751000000000005,US,USA,United States,,,,,
752,-97.822,37.751000000000005,US,USA,United States,,,,,
753,-111.6133,40.21809999999999,US,USA,United States,Provo,84606,UT,801,770
754,-74.6171,41.05439999999999,US,USA,United States,Sparta,07871,NJ,973,501
755,-97.822,37.751000000000005,US,USA,United States,,,,,
756,-97.822,37.751000000000005,US,USA,United States,,,,,
757,-111.8906,33.61189999999999,US,USA,United States,Scottsdale,85260,AZ,480,753
758,-97.822,37.751000000000005,US,USA,United States,,,,,
759,-72.4632,41.8365,US,USA,United States,Vernon Rockville,06066,CT,860,533
760,-97.822,37.751000000000005,US,USA,United States,,,,,
761,-74.4637,40.55160000000001,US,USA,United States,Piscataway,08854,NJ,732,501
762,-97.822,37.751000000000005,US,USA,United States,,,,,
763,-97.7291,31.113,US,USA,United States,Killeen,76541,TX,254,625
764,-97.822,37.751000000000005,US,USA,United States,,,,,
765,-84.3858,33.74799999999999,US,USA,United States,Atlanta,30303,GA,404,524
766,-77.4728,39.048100000000005,US,USA,United States,Ashburn,20149,VA,703,511
767,-97.822,37.751000000000005,US,USA,United States,,,,,
768,-97.822,37.751000000000005,US,USA,United States,,,,,
769,-74.0565,40.789500000000004,US,USA,United States,Secaucus,07094,NJ,201,501
770,-97.822,37.751000000000005,US,USA,United States,,,,,
771,-122.34219999999999,47.6344,US,USA,United States,Seattle,98109,WA,206,819
772,-81.1893,28.58869999999999,US,USA,United States,Orlando,32826,FL,407,534
773,-97.822,37.751000000000005,US,USA,United States,,,,,
774,-97.822,37.751000000000005,US,USA,United States,,,,,
775,-121.9854,37.3501,US,USA,United States,Santa Clara,95051,CA,408,807
776,-95.4739,29.830099999999987,US,USA,United States,Houston,77092,TX,713,618
777,-81.6516,30.330399999999997,US,USA,United States,Jacksonville,32202,FL,904,561
778,-97.822,37.751000000000005,US,USA,United States,,,,,
779,-87.6517,41.848299999999995,US,USA,United States,Chicago,60602,IL,312,602
780,-97.822,37.751000000000005,US,USA,United States,,,,,
781,-122.0574,37.41919999999999,US,USA,United States,Mountain View,94043,CA,650,807
782,-97.822,37.751000000000005,US,USA,United States,,,,,
783,-97.822,37.751000000000005,US,USA,United States,,,,,
784,-71.8463,42.19550000000001,US,USA,United States,Auburn,01501,MA,508,506
785,-94.566,39.10679999999999,US,USA,United States,Kansas City,64106,MO,816,616
786,-75.8674,43.058099999999996,US,USA,United States,Chittenango,13037,NY,315,555
787,-118.244,34.05439999999999,US,USA,United States,Los Angeles,90009,CA,310,803
788,-97.822,37.751000000000005,US,USA,United States,,,,,
789,-97.822,37.751000000000005,US,USA,United States,,,,,
790,-74.0052,40.72139999999999,US,USA,United States,New York,10013,NY,212,501
791,-97.822,37.751000000000005,US,USA,United States,,,,,
792,-97.822,37.751000000000005,US,USA,United States,,,,,
793,-97.822,37.751000000000005,US,USA,United States,,,,,
794,-97.822,37.751000000000005,US,USA,United States,,,,,
795,-73.7876,40.595,US,USA,United States,Arverne,11692,NY,718,501
796,-111.8906,33.61189999999999,US,USA,United States,Scottsdale,85260,AZ,480,753
797,-111.6133,40.21809999999999,US,USA,United States,Provo,84606,UT,801,770
798,-119.688,45.86959999999999,US,USA,United States,Boardman,97818,OR,541,810
799,-121.8914,37.33869999999999,US,USA,United States,San Jose,95113,CA,408,807
800,-97.822,37.751000000000005,US,USA,United States,,,,,
801,-117.37610000000001,34.22489999999999,US,USA,United States,San Bernardino,92407,CA,909,803
802,-96.8705,32.81479999999999,US,USA,United States,Dallas,75247,TX,214,623
803,-97.822,37.751000000000005,US,USA,United States,,,,,
804,-111.8906,33.61189999999999,US,USA,United States,Scottsdale,85260,AZ,480,753
805,-71.2353,42.3699,US,USA,United States,Waltham,02453,MA,781,506
806,-122.0574,37.41919999999999,US,USA,United States,Mountain View,94043,CA,650,807
807,-97.822,37.751000000000005,US,USA,United States,,,,,
808,-117.8505,33.83019999999999,US,USA,United States,Orange,92865,CA,714,803
809,-97.822,37.751000000000005,US,USA,United States,,,,,
810,-97.822,37.751000000000005,US,USA,United States,,,,,
811,-97.822,37.751000000000005,US,USA,United States,,,,,
812,-84.3024,31.522999999999996,US,USA,United States,Albany,31721,GA,229,525
813,-97.822,37.751000000000005,US,USA,United States,,,,,
814,-97.822,37.751000000000005,US,USA,United States,,,,,
815,-97.822,37.751000000000005,US,USA,United States,,,,,
816,-97.822,37.751000000000005,US,USA,United States,,,,,
817,-122.3558,37.52600000000001,US,USA,United States,San Mateo,94402,CA,650,807
818,-117.3686,34.49539999999999,US,USA,United States,Victorville,92392,CA,760,803
819,-97.822,37.751000000000005,US,USA,United States,,,,,
820,-77.3489,38.93109999999999,US,USA,United States,Reston,20191,VA,703,511
821,-119.1726,34.19800000000001,US,USA,United States,Oxnard,93030,CA,805,803
822,-94.2081,45.580900000000014,US,USA,United States,Saint Cloud,56303,MN,320,613
823,-111.8906,33.61189999999999,US,USA,United States,Scottsdale,85260,AZ,480,753
824,-111.8906,33.61189999999999,US,USA,United States,Scottsdale,85260,AZ,480,753
825,-118.27799999999999,34.058400000000006,US,USA,United States,Los Angeles,90017,CA,213,803
826,-121.8914,37.33879999999999,US,USA,United States,San Jose,95141,CA,408,807
827,-97.822,37.751000000000005,US,USA,United States,,,,,
828,-97.822,37.751000000000005,US,USA,United States,,,,,
829,-97.822,37.751000000000005,US,USA,United States,,,,,
830,-97.822,37.751000000000005,US,USA,United States,,,,,
831,-75.5045,39.816,US,USA,United States,Wilmington,19810,DE,302,504
832,-121.8914,37.33869999999999,US,USA,United States,San Jose,95113,CA,408,807
833,-97.822,37.751000000000005,US,USA,United States,,,,,
834,-97.822,37.751000000000005,US,USA,United States,,,,,
835,-96.0467,41.2987,US,USA,United States,Omaha,68134,NE,402,652
836,-97.822,37.751000000000005,US,USA,United States,,,,,
837,-122.3341,47.610299999999995,US,USA,United States,Seattle,98101,WA,206,819
838,-97.822,37.751000000000005,US,USA,United States,,,,,
839,-97.822,37.751000000000005,US,USA,United States,,,,,
840,-97.822,37.751000000000005,US,USA,United States,,,,,
841,-122.0574,37.41919999999999,US,USA,United States,Mountain View,94043,CA,650,807
842,-97.822,37.751000000000005,US,USA,United States,,,,,
843,-75.4083,40.0548,US,USA,United States,Wayne,19087,PA,610,504
844,-97.822,37.751000000000005,US,USA,United States,,,,,
845,-97.822,37.751000000000005,US,USA,United States,,,,,
846,-77.4728,39.048100000000005,US,USA,United States,Ashburn,20149,VA,703,511
847,-122.3123,47.542,US,USA,United States,Seattle,98108,WA,206,819
848,-122.2833,47.8049,US,USA,United States,Lynnwood,98036,WA,425,819
849,-122.0574,37.41919999999999,US,USA,United States,Mountain View,94043,CA,650,807
850,-97.822,37.751000000000005,US,USA,United States,,,,,
851,-117.1293,32.7663,US,USA,United States,San Diego,92116,CA,619,825
852,-97.822,37.751000000000005,US,USA,United States,,,,,
853,-122.9117,45.5848,US,USA,United States,Hillsboro,97124,OR,503,820
854,-115.2791,36.1113,US,USA,United States,Las Vegas,89147,NV,702,839
855,-97.822,37.751000000000005,US,USA,United States,,,,,
856,-94.5735,39.1472,US,USA,United States,Kansas City,64116,MO,816,616
857,-97.822,37.751000000000005,US,USA,United States,,,,,
858,-97.822,37.751000000000005,US,USA,United States,,,,,
859,-111.6133,40.21809999999999,US,USA,United States,Provo,84606,UT,801,770
860,-97.822,37.751000000000005,US,USA,United States,,,,,
861,-97.822,37.751000000000005,US,USA,United States,,,,,
862,-74.0052,40.72139999999999,US,USA,United States,New York,10013,NY,212,501
863,-97.822,37.751000000000005,US,USA,United States,,,,,
864,-84.636,42.72569999999999,US,USA,United States,Lansing,48917,MI,517,551
865,-97.822,37.751000000000005,US,USA,United States,,,,,
866,-97.822,37.751000000000005,US,USA,United States,,,,,
867,-97.822,37.751000000000005,US,USA,United States,,,,,
868,-97.822,37.751000000000005,US,USA,United States,,,,,
869,-97.822,37.751000000000005,US,USA,United States,,,,,
870,-74.1496,40.5514,US,USA,United States,Staten Island,10308,NY,718,501
871,-97.822,37.751000000000005,US,USA,United States,,,,,
872,-97.822,37.751000000000005,US,USA,United States,,,,,
873,-85.7026,37.963300000000004,US,USA,United States,Shepherdsville,40165,KY,502,529
874,-81.3706,28.5445,US,USA,United States,Orlando,32801,FL,407,534
875,-122.0574,37.41919999999999,US,USA,United States,Mountain View,94043,CA,650,807
876,-88.0447,41.73509999999999,US,USA,United States,Woodridge,60517,IL,630,602
877,-97.822,37.751000000000005,US,USA,United States,,,,,
878,-97.822,37.751000000000005,US,USA,United States,,,,,
879,-97.822,37.751000000000005,US,USA,United States,,,,,
880,-122.0574,37.41919999999999,US,USA,United States,Mountain View,94043,CA,650,807
881,-97.822,37.751000000000005,US,USA,United States,,,,,
882,-97.822,37.751000000000005,US,USA,United States,,,,,
883,-78.9349,38.292699999999996,US,USA,United States,Weyers Cave,24486,VA,540,569
884,-122.0574,37.41919999999999,US,USA,United States,Mountain View,94043,CA,650,807
885,-97.822,37.751000000000005,US,USA,United States,,,,,
886,-97.822,37.751000000000005,US,USA,United States,,,,,
887,-97.822,37.751000000000005,US,USA,United States,,,,,
888,-97.822,37.751000000000005,US,USA,United States,,,,,
889,-71.3597,42.45859999999999,US,USA,United States,Concord,01742,MA,978,506
890,-97.822,37.751000000000005,US,USA,United States,,,,,
891,-97.822,37.751000000000005,US,USA,United States,,,,,
892,-122.0574,37.41919999999999,US,USA,United States,Mountain View,94043,CA,650,807
893,-97.822,37.751000000000005,US,USA,United States,,,,,
894,-97.822,37.751000000000005,US,USA,United States,,,,,
895,-74.0052,40.72139999999999,US,USA,United States,New York,10013,NY,212,501
896,-97.822,37.751000000000005,US,USA,United States,,,,,
897,-97.822,37.751000000000005,US,USA,United States,,,,,
898,-97.822,37.751000000000005,US,USA,United States,,,,,
899,-97.6437,30.366000000000014,US,USA,United States,Austin,78754,TX,512,635
900,-118.4041,33.9571,US,USA,United States,Los Angeles,90045,CA,310,803
901,-97.822,37.751000000000005,US,USA,United States,,,,,
902,-118.4041,33.9571,US,USA,United States,Los Angeles,90045,CA,310,803
903,-97.822,37.751000000000005,US,USA,United States,,,,,
904,-96.8217,32.778699999999986,US,USA,United States,Dallas,75270,TX,214,623
905,-97.7227,30.310599999999994,US,USA,United States,Austin,78751,TX,512,635
906,-97.822,37.751000000000005,US,USA,United States,,,,,
907,-97.822,37.751000000000005,US,USA,United States,,,,,
908,-118.27799999999999,34.058400000000006,US,USA,United States,Los Angeles,90017,CA,213,803
909,-78.8781,42.88640000000001,US,USA,United States,Buffalo,14202,NY,716,514
910,-86.8066,33.4667,US,USA,United States,Birmingham,35209,AL,205,630
911,-97.822,37.751000000000005,US,USA,United States,,,,,
912,-118.27799999999999,34.058400000000006,US,USA,United States,Los Angeles,90017,CA,213,803
913,-122.1408,47.62010000000001,US,USA,United States,Bellevue,98007,WA,425,819
914,-122.4194,37.7749,US,USA,United States,San Francisco,94119,CA,415,807
915,-97.822,37.751000000000005,US,USA,United States,,,,,
916,-77.4728,39.048100000000005,US,USA,United States,Ashburn,20149,VA,703,511
917,-75.4083,40.0548,US,USA,United States,Wayne,19087,PA,610,504
918,-77.4728,39.048100000000005,US,USA,United States,Ashburn,20149,VA,703,511
919,-97.822,37.751000000000005,US,USA,United States,,,,,
920,-111.8906,33.61189999999999,US,USA,United States,Scottsdale,85260,AZ,480,753
921,-97.822,37.751000000000005,US,USA,United States,,,,,
922,-97.822,37.751000000000005,US,USA,United States,,,,,
923,-111.6133,40.21809999999999,US,USA,United States,Provo,84606,UT,801,770
924,-118.3523,33.8047,US,USA,United States,Torrance,90505,CA,310,803
925,-97.822,37.751000000000005,US,USA,United States,,,,,
926,-93.4063,30.258499999999998,US,USA,United States,Sulphur,70663,LA,337,643
927,-118.3928,34.02019999999999,US,USA,United States,Culver City,90232,CA,310,803
928,-97.822,37.751000000000005,US,USA,United States,,,,,
929,-97.822,37.751000000000005,US,USA,United States,,,,,
930,-122.0574,37.41919999999999,US,USA,United States,Mountain View,94043,CA,650,807
931,-82.0718,39.955299999999994,US,USA,United States,Zanesville,43701,OH,740,596
932,-97.822,37.751000000000005,US,USA,United States,,,,,
933,-97.822,37.751000000000005,US,USA,United States,,,,,
934,-117.8535,34.01150000000001,US,USA,United States,Walnut,91789,CA,909,803
935,-84.636,42.72569999999999,US,USA,United States,Lansing,48917,MI,517,551
936,-97.1342,32.852300000000014,US,USA,United States,Bedford,76021,TX,817,623
937,-97.822,37.751000000000005,US,USA,United States,,,,,
938,-97.822,37.751000000000005,US,USA,United States,,,,,
939,-118.4682,34.0119,US,USA,United States,Santa Monica,90405,CA,310,803
940,-87.6517,41.848299999999995,US,USA,United States,Chicago,60602,IL,312,602
941,-95.4739,29.830099999999987,US,USA,United States,Houston,77092,TX,713,618
942,-122.3341,47.610299999999995,US,USA,United States,Seattle,98101,WA,206,819
943,-117.8612,33.92689999999999,US,USA,United States,Brea,92821,CA,714,803
944,-97.822,37.751000000000005,US,USA,United States,,,,,
945,-97.822,37.751000000000005,US,USA,United States,,,,,
946,-119.688,45.86959999999999,US,USA,United States,Boardman,97818,OR,541,810
947,-118.27799999999999,34.058400000000006,US,USA,United States,Los Angeles,90017,CA,213,803
948,-97.822,37.751000000000005,US,USA,United States,,,,,
949,-97.822,37.751000000000005,US,USA,United States,,,,,
950,-97.822,37.751000000000005,US,USA,United States,,,,,
951,-97.822,37.751000000000005,US,USA,United States,,,,,
952,-97.822,37.751000000000005,US,USA,United States,,,,,
953,-97.822,37.751000000000005,US,USA,United States,,,,,
954,-117.94210000000001,34.06989999999999,US,USA,United States,West Covina,91790,CA,626,803
955,-96.9912,32.7209,US,USA,United States,Grand Prairie,75051,TX,972,623
956,-111.6133,40.21809999999999,US,USA,United States,Provo,84606,UT,801,770
957,-76.6858,39.34299999999999,US,USA,United States,Baltimore,21215,MD,410,512
958,-97.822,37.751000000000005,US,USA,United States,,,,,
959,-83.1662,39.04849999999999,US,USA,United States,Piketon,45661,OH,740,535
960,-71.1329,42.379999999999995,US,USA,United States,Cambridge,02138,MA,617,506
961,-97.822,37.751000000000005,US,USA,United States,,,,,
962,-122.0574,37.41919999999999,US,USA,United States,Mountain View,94043,CA,650,807
963,-77.4728,39.048100000000005,US,USA,United States,Ashburn,20149,VA,703,511
964,-97.822,37.751000000000005,US,USA,United States,,,,,
965,-97.822,37.751000000000005,US,USA,United States,,,,,
966,-71.0598,42.35839999999999,US,USA,United States,,,MA,,
967,-74.0052,40.72139999999999,US,USA,United States,New York,10013,NY,212,501
968,-97.822,37.751000000000005,US,USA,United States,,,,,
969,-97.822,37.751000000000005,US,USA,United States,,,,,
970,-78.8781,42.88640000000001,US,USA,United States,Buffalo,14202,NY,716,514
971,-97.822,37.751000000000005,US,USA,United States,,,,,
972,-97.822,37.751000000000005,US,USA,United States,,,,,
973,-122.4194,37.7749,US,USA,United States,San Francisco,94119,CA,415,807
974,-97.822,37.751000000000005,US,USA,United States,,,,,
975,-78.7239,35.74629999999999,US,USA,United States,Raleigh,27606,NC,919,560
976,-93.8397,45.184500000000014,US,USA,United States,Buffalo,55313,MN,763,613
977,-97.822,37.751000000000005,US,USA,United States,,,,,
978,-96.549,32.9367,US,USA,United States,Rowlett,75089,TX,972,623
979,-97.822,37.751000000000005,US,USA,United States,,,,,
980,-97.822,37.751000000000005,US,USA,United States,,,,,
981,-111.6133,40.21809999999999,US,USA,United States,Provo,84606,UT,801,770
982,-87.6517,41.848299999999995,US,USA,United States,Chicago,60602,IL,312,602
983,-97.822,37.751000000000005,US,USA,United States,,,,,
984,-97.822,37.751000000000005,US,USA,United States,,,,,
985,-97.822,37.751000000000005,US,USA,United States,,,,,
986,-97.822,37.751000000000005,US,USA,United States,,,,,
987,-97.822,37.751000000000005,US,USA,United States,,,,,
988,-97.822,37.751000000000005,US,USA,United States,,,,,
989,-97.822,37.751000000000005,US,USA,United States,,,,,
990,-97.822,37.751000000000005,US,USA,United States,,,,,
991,-97.822,37.751000000000005,US,USA,United States,,,,,
992,-97.822,37.751000000000005,US,USA,United States,,,,,
993,-93.6091,41.60050000000001,US,USA,United States,Des Moines,50307,IA,515,679
994,-77.4728,39.048100000000005,US,USA,United States,Ashburn,20149,VA,703,511
995,-122.0574,37.41919999999999,US,USA,United States,Mountain View,94043,CA,650,807
996,-92.9365,45.496700000000004,US,USA,United States,North Branch,55056,MN,651,613
997,-97.822,37.751000000000005,US,USA,United States,,,,,
998,-122.0214,37.369699999999995,US,USA,United States,Sunnyvale,94086,CA,408,807
999,-97.822,37.751000000000005,US,USA,United States,,,,,
1000,-119.688,45.86959999999999,US,USA,United States,Boardman,97818,OR,541,810
1001,-111.6133,40.21809999999999,US,USA,United States,Provo,84606,UT,801,770
1002,-75.1756,39.953,US,USA,United States,Philadelphia,19103,PA,215,504
1003,-73.7752,40.6763,US,USA,United States,Jamaica,11434,NY,718,501
1004,-117.904,33.97819999999999,US,USA,United States,Rowland Heights,91748,CA,626,803
1005,-97.822,37.751000000000005,US,USA,United States,,,,,
1006,-97.822,37.751000000000005,US,USA,United States,,,,,
1007,-96.0341,36.23769999999999,US,USA,United States,Tulsa,74126,OK,918,671
1008,-117.13239999999999,32.8073,US,USA,United States,San Diego,92123,CA,858,825
1009,-122.0574,37.41919999999999,US,USA,United States,Mountain View,94043,CA,650,807
1010,-97.822,37.751000000000005,US,USA,United States,,,,,
1011,-97.822,37.751000000000005,US,USA,United States,,,,,
1012,-83.0235,39.96530000000001,US,USA,United States,Columbus,43215,OH,614,535
1013,-97.822,37.751000000000005,US,USA,United States,,,,,
1014,-84.636,42.72569999999999,US,USA,United States,Lansing,48917,MI,517,551
1015,-73.7804,42.7526,US,USA,United States,Latham,12110,NY,518,532
1016,-97.822,37.751000000000005,US,USA,United States,,,,,
1017,-97.822,37.751000000000005,US,USA,United States,,,,,
1018,-90.4582,41.573800000000006,US,USA,United States,Bettendorf,52722,IA,563,682
1019,-122.0574,37.41919999999999,US,USA,United States,Mountain View,94043,CA,650,807
1020,-97.822,37.751000000000005,US,USA,United States,,,,,
1021,-121.2399,37.739900000000006,US,USA,United States,Manteca,95337,CA,209,862
1022,-96.8705,32.81479999999999,US,USA,United States,Dallas,75247,TX,214,623
1023,-122.0574,37.41919999999999,US,USA,United States,Mountain View,94043,CA,650,807
1024,-97.822,37.751000000000005,US,USA,United States,,,,,
1025,-97.822,37.751000000000005,US,USA,United States,,,,,
1026,-97.0224,32.31299999999999,US,USA,United States,Maypearl,76064,TX,972,623
1027,-97.822,37.751000000000005,US,USA,United States,,,,,
1028,-97.822,37.751000000000005,US,USA,United States,,,,,
1029,-97.822,37.751000000000005,US,USA,United States,,,,,
1030,-111.9519,33.674800000000005,US,USA,United States,Phoenix,85054,AZ,480,753
1031,-84.5033,34.024699999999996,US,USA,United States,Marietta,30066,GA,770,524
1032,-97.822,37.751000000000005,US,USA,United States,,,,,
1033,-97.822,37.751000000000005,US,USA,United States,,,,,
1034,-97.822,37.751000000000005,US,USA,United States,,,,,
1035,-97.822,37.751000000000005,US,USA,United States,,,,,
1036,-97.822,37.751000000000005,US,USA,United States,,,,,
1037,-118.3928,34.02019999999999,US,USA,United States,Culver City,90232,CA,310,803
1038,-97.822,37.751000000000005,US,USA,United States,,,,,
1039,-83.0235,39.96530000000001,US,USA,United States,Columbus,43215,OH,614,535
1040,-74.3194,40.498099999999994,US,USA,United States,Edison,08837,NJ,732,501
1041,-108.7094,39.191,US,USA,United States,Fruita,81521,CO,970,773
1042,-97.822,37.751000000000005,US,USA,United States,,,,,
1043,-97.822,37.751000000000005,US,USA,United States,,,,,
1044,-97.822,37.751000000000005,US,USA,United States,,,,,
1045,-87.5119,38.028099999999995,US,USA,United States,Evansville,47711,IN,812,649
1046,-97.822,37.751000000000005,US,USA,United States,,,,,
1047,-97.822,37.751000000000005,US,USA,United States,,,,,
1048,-121.8914,37.33869999999999,US,USA,United States,San Jose,95113,CA,408,807
1049,-75.6203,39.9239,US,USA,United States,West Chester,19382,PA,610,504
1050,-121.8914,37.33869999999999,US,USA,United States,San Jose,95113,CA,408,807
1051,-97.822,37.751000000000005,US,USA,United States,,,,,
1052,-97.822,37.751000000000005,US,USA,United States,,,,,
1053,-80.1711,26.188199999999995,US,USA,United States,Fort Lauderdale,33309,FL,954,528
1054,-97.822,37.751000000000005,US,USA,United States,,,,,
1055,-97.822,37.751000000000005,US,USA,United States,,,,,
1056,-97.822,37.751000000000005,US,USA,United States,,,,,
1057,-97.822,37.751000000000005,US,USA,United States,,,,,
1058,-104.9995,39.7525,US,USA,United States,Denver,80202,CO,303,751
1059,-122.0574,37.41919999999999,US,USA,United States,Mountain View,94043,CA,650,807
1060,-97.822,37.751000000000005,US,USA,United States,,,,,
1061,-81.9424,33.524400000000014,US,USA,United States,North Augusta,29841,SC,803,520
1062,-73.9975,40.73079999999999,US,USA,United States,New York,10011,NY,212,501
1063,-111.6133,40.21809999999999,US,USA,United States,Provo,84606,UT,801,770
1064,-97.822,37.751000000000005,US,USA,United States,,,,,
1065,-97.822,37.751000000000005,US,USA,United States,,,,,
1066,-97.822,37.751000000000005,US,USA,United States,,,,,
1067,-118.27799999999999,34.058400000000006,US,USA,United States,Los Angeles,90017,CA,213,803
1068,-77.1074,38.72219999999999,US,USA,United States,Alexandria,22309,VA,703,511
1069,-95.4739,29.830099999999987,US,USA,United States,Houston,77092,TX,713,618
1070,-97.822,37.751000000000005,US,USA,United States,,,,,
1071,-97.822,37.751000000000005,US,USA,United States,,,,,
1072,-97.822,37.751000000000005,US,USA,United States,,,,,
1073,-97.822,37.751000000000005,US,USA,United States,,,,,
1074,-122.0574,37.41919999999999,US,USA,United States,Mountain View,94043,CA,650,807
1075,-84.5539,42.732,US,USA,United States,Lansing,48933,MI,517,551
1076,-97.822,37.751000000000005,US,USA,United States,,,,,
1077,-116.21350000000001,43.56100000000001,US,USA,United States,Boise,83705,ID,208,757
1078,-97.822,37.751000000000005,US,USA,United States,,,,,
1079,-97.822,37.751000000000005,US,USA,United States,,,,,
1080,-75.1968,39.9597,US,USA,United States,Philadelphia,19104,PA,215,504
1081,-74.0052,40.72139999999999,US,USA,United States,New York,10013,NY,212,501
1082,-97.822,37.751000000000005,US,USA,United States,,,,,
1083,-95.4739,29.830099999999987,US,USA,United States,Houston,77092,TX,713,618
1084,-122.0574,37.41919999999999,US,USA,United States,Mountain View,94043,CA,650,807
1085,-78.1704,38.71629999999999,US,USA,United States,Washington,22747,VA,540,511
1086,-97.822,37.751000000000005,US,USA,United States,,,,,
1087,-97.822,37.751000000000005,US,USA,United States,,,,,
1088,-97.822,37.751000000000005,US,USA,United States,,,,,
1089,-84.5941,42.86019999999999,US,USA,United States,Dewitt,48820,MI,517,551
1090,-74.0052,40.72139999999999,US,USA,United States,New York,10013,NY,212,501
1091,-97.822,37.751000000000005,US,USA,United States,,,,,
1092,-97.822,37.751000000000005,US,USA,United States,,,,,
1093,-97.822,37.751000000000005,US,USA,United States,,,,,
1094,-81.4835,28.522500000000008,US,USA,United States,Orlando,32835,FL,407,534
1095,-97.822,37.751000000000005,US,USA,United States,,,,,
1096,-82.6341,27.7723,US,USA,United States,Saint Petersburg,33701,FL,727,539
1097,-97.822,37.751000000000005,US,USA,United States,,,,,
1098,-72.3134,41.0633,US,USA,United States,Shelter Island,11964,NY,631,501
1099,-97.822,37.751000000000005,US,USA,United States,,,,,
1100,-95.4739,29.830099999999987,US,USA,United States,Houston,77092,TX,713,618
1101,-81.4389,41.17410000000001,US,USA,United States,Stow,44224,OH,330,510
1102,-97.822,37.751000000000005,US,USA,United States,,,,,
1103,-97.1467,32.89179999999999,US,USA,United States,Colleyville,76034,TX,817,623
1104,-122.0574,37.41919999999999,US,USA,United States,Mountain View,94043,CA,650,807
1105,-111.8906,33.61189999999999,US,USA,United States,Scottsdale,85260,AZ,480,753
1106,-96.8705,32.81479999999999,US,USA,United States,Dallas,75247,TX,214,623
1107,-117.9068,34.697599999999994,US,USA,United States,Lancaster,93535,CA,661,803
1108,-71.7147,42.28649999999999,US,USA,United States,Shrewsbury,01545,MA,508,506
1109,-111.9519,33.674800000000005,US,USA,United States,Phoenix,85054,AZ,480,753
1110,-97.822,37.751000000000005,US,USA,United States,,,,,
1111,-97.822,37.751000000000005,US,USA,United States,,,,,
1112,-97.822,37.751000000000005,US,USA,United States,,,,,
1113,-85.8059,38.266699999999986,US,USA,United States,Louisville,40212,KY,502,529
1114,-97.822,37.751000000000005,US,USA,United States,,,,,
1115,-95.4739,29.830099999999987,US,USA,United States,Houston,77092,TX,713,618
1116,-97.822,37.751000000000005,US,USA,United States,,,,,
1117,-118.2606,34.072900000000004,US,USA,United States,Los Angeles,90012,CA,213,803
1118,-122.0574,37.41919999999999,US,USA,United States,Mountain View,94043,CA,650,807
1119,-82.4698,36.53649999999999,US,USA,United States,Kingsport,37664,TN,423,531
1120,-77.4728,39.048100000000005,US,USA,United States,Ashburn,20149,VA,703,511
1121,-97.822,37.751000000000005,US,USA,United States,,,,,
1122,-97.822,37.751000000000005,US,USA,United States,,,,,
1123,-117.6328,33.56800000000001,US,USA,United States,Ladera Ranch,92694,CA,949,803
1124,-81.8089,38.36330000000001,US,USA,United States,Saint Albans,25177,WV,304,564
1125,-97.822,37.751000000000005,US,USA,United States,,,,,
1126,-97.822,37.751000000000005,US,USA,United States,,,,,
1127,-97.822,37.751000000000005,US,USA,United States,,,,,
1128,-118.4088,46.044700000000006,US,USA,United States,College Place,99324,WA,509,810
1129,-97.822,37.751000000000005,US,USA,United States,,,,,
1130,-97.822,37.751000000000005,US,USA,United States,,,,,
1131,-97.822,37.751000000000005,US,USA,United States,,,,,
1132,-79.7068,34.62960000000001,US,USA,United States,Bennettsville,29512,SC,843,570
1133,-97.822,37.751000000000005,US,USA,United States,,,,,
1134,-122.3558,37.52600000000001,US,USA,United States,San Mateo,94402,CA,650,807
1135,-97.822,37.751000000000005,US,USA,United States,,,,,
1136,-97.822,37.751000000000005,US,USA,United States,,,,,
1137,-97.822,37.751000000000005,US,USA,United States,,,,,
1138,-97.822,37.751000000000005,US,USA,United States,,,,,
1139,-97.822,37.751000000000005,US,USA,United States,,,,,
1140,-97.822,37.751000000000005,US,USA,United States,,,,,
1141,-104.9995,39.7525,US,USA,United States,Denver,80202,CO,303,751
1142,-97.822,37.751000000000005,US,USA,United States,,,,,
1143,-97.822,37.751000000000005,US,USA,United States,,,,,
1144,-97.822,37.751000000000005,US,USA,United States,,,,,
1145,-97.822,37.751000000000005,US,USA,United States,,,,,
1146,-115.1372,36.17500000000001,US,USA,United States,Las Vegas,89169,NV,702,839
1147,-97.822,37.751000000000005,US,USA,United States,,,,,
1148,-111.8906,33.61189999999999,US,USA,United States,Scottsdale,85260,AZ,480,753
1149,-122.0574,37.41919999999999,US,USA,United States,Mountain View,94043,CA,650,807
1150,-97.822,37.751000000000005,US,USA,United States,,,,,
1151,-97.822,37.751000000000005,US,USA,United States,,,,,
1152,-81.4389,41.17410000000001,US,USA,United States,Stow,44224,OH,330,510
1153,-75.3809,40.15450000000001,US,USA,United States,Norristown,19403,PA,610,504
1154,-97.822,37.751000000000005,US,USA,United States,,,,,
1155,-97.822,37.751000000000005,US,USA,United States,,,,,
1156,-97.822,37.751000000000005,US,USA,United States,,,,,
1157,-97.822,37.751000000000005,US,USA,United States,,,,,
1158,-97.822,37.751000000000005,US,USA,United States,,,,,
1159,-97.822,37.751000000000005,US,USA,United States,,,,,
1160,-122.3341,47.610299999999995,US,USA,United States,Seattle,98101,WA,206,819
1161,-97.822,37.751000000000005,US,USA,United States,,,,,
1162,-96.8217,32.778699999999986,US,USA,United States,Dallas,75270,TX,214,623
1163,-97.822,37.751000000000005,US,USA,United States,,,,,
1164,-97.822,37.751000000000005,US,USA,United States,,,,,
1165,-97.822,37.751000000000005,US,USA,United States,,,,,
1166,-90.2533,38.6446,US,USA,United States,Saint Louis,63108,MO,314,609
1167,-97.822,37.751000000000005,US,USA,United States,,,,,
1168,-97.822,37.751000000000005,US,USA,United States,,,,,
1169,-77.4728,39.048100000000005,US,USA,United States,Ashburn,20149,VA,703,511
1170,-96.8705,32.81479999999999,US,USA,United States,Dallas,75247,TX,214,623
1171,-97.822,37.751000000000005,US,USA,United States,,,,,
1172,-92.7601,30.08099999999999,US,USA,United States,Lake Arthur,70549,LA,337,642
1173,-84.636,42.72569999999999,US,USA,United States,Lansing,48917,MI,517,551
1174,-97.822,37.751000000000005,US,USA,United States,,,,,
1175,-97.822,37.751000000000005,US,USA,United States,,,,,
1176,-122.2444,47.7542,US,USA,United States,Kenmore,98028,WA,425,819
1177,-97.822,37.751000000000005,US,USA,United States,,,,,
1178,-85.2147,41.00800000000001,US,USA,United States,Fort Wayne,46809,IN,260,509
1179,-97.822,37.751000000000005,US,USA,United States,,,,,
1180,-97.822,37.751000000000005,US,USA,United States,,,,,
1181,-118.83760000000001,34.17060000000001,US,USA,United States,Thousand Oaks,91358,CA,805,803
1182,-83.0235,39.96530000000001,US,USA,United States,Columbus,43215,OH,614,535
1183,-97.822,37.751000000000005,US,USA,United States,,,,,
1184,-97.822,37.751000000000005,US,USA,United States,,,,,
1185,-97.822,37.751000000000005,US,USA,United States,,,,,
1186,-87.6272,41.8776,US,USA,United States,Chicago,60604,IL,312,602
1187,-97.822,37.751000000000005,US,USA,United States,,,,,
1188,-111.9519,33.674800000000005,US,USA,United States,Phoenix,85054,AZ,480,753
1189,-118.27799999999999,34.058400000000006,US,USA,United States,Los Angeles,90017,CA,213,803
1190,-97.822,37.751000000000005,US,USA,United States,,,,,
1191,-122.0574,37.41919999999999,US,USA,United States,Mountain View,94043,CA,650,807
1192,-118.27799999999999,34.058400000000006,US,USA,United States,Los Angeles,90017,CA,213,803
1193,-97.822,37.751000000000005,US,USA,United States,,,,,
1194,-97.822,37.751000000000005,US,USA,United States,,,,,
1195,-97.822,37.751000000000005,US,USA,United States,,,,,
1196,-97.822,37.751000000000005,US,USA,United States,,,,,
1197,-97.822,37.751000000000005,US,USA,United States,,,,,
1198,-97.822,37.751000000000005,US,USA,United States,,,,,
1199,-97.822,37.751000000000005,US,USA,United States,,,,,
1200,-97.822,37.751000000000005,US,USA,United States,,,,,
1201,-117.98490000000001,34.0463,US,USA,United States,La Puente,91746,CA,626,803
1202,-97.822,37.751000000000005,US,USA,United States,,,,,
1203,-77.4728,39.048100000000005,US,USA,United States,Ashburn,20149,VA,703,511
1204,-97.822,37.751000000000005,US,USA,United States,,,,,
1205,-97.822,37.751000000000005,US,USA,United States,,,,,
1206,-97.822,37.751000000000005,US,USA,United States,,,,,
1207,-97.822,37.751000000000005,US,USA,United States,,,,,
1208,-97.822,37.751000000000005,US,USA,United States,,,,,
1209,-111.8233,40.88040000000001,US,USA,United States,Bountiful,84010,UT,801,770
1210,-95.2518,39.87559999999999,US,USA,United States,Highland,66035,KS,785,638
1211,-97.822,37.751000000000005,US,USA,United States,,,,,
1212,-97.822,37.751000000000005,US,USA,United States,,,,,
1213,-97.822,37.751000000000005,US,USA,United States,,,,,
1214,-97.822,37.751000000000005,US,USA,United States,,,,,
1215,-97.822,37.751000000000005,US,USA,United States,,,,,
1216,-97.822,37.751000000000005,US,USA,United States,,,,,
1217,-122.2067,47.72049999999999,US,USA,United States,Kirkland,98034,WA,425,819
1218,-94.3545,38.91669999999999,US,USA,United States,Lees Summit,64063,MO,816,616
1219,-98.3903,34.6087,US,USA,United States,Lawton,73502,OK,580,627
1220,-111.6133,40.21809999999999,US,USA,United States,Provo,84606,UT,801,770
1221,-97.822,37.751000000000005,US,USA,United States,,,,,
1222,-122.29079999999999,47.48910000000001,US,USA,United States,Seattle,98168,WA,206,819
1223,-97.822,37.751000000000005,US,USA,United States,,,,,
1224,-97.822,37.751000000000005,US,USA,United States,,,,,
1225,-97.822,37.751000000000005,US,USA,United States,,,,,
1226,-118.2641,34.04939999999999,US,USA,United States,Los Angeles,90014,CA,213,803
1227,-74.3194,40.498099999999994,US,USA,United States,Edison,08837,NJ,732,501
1228,-121.8914,37.33879999999999,US,USA,United States,San Jose,95141,CA,408,807
1229,-122.29079999999999,47.48910000000001,US,USA,United States,Seattle,98168,WA,206,819
1230,-97.822,37.751000000000005,US,USA,United States,,,,,
1231,-97.822,37.751000000000005,US,USA,United States,,,,,
1232,-118.27799999999999,34.058400000000006,US,USA,United States,Los Angeles,90017,CA,213,803
1233,-97.822,37.751000000000005,US,USA,United States,,,,,
1234,-97.822,37.751000000000005,US,USA,United States,,,,,
1235,-74.006,40.71430000000001,US,USA,United States,New York City,10004,NY,212,501
1236,-97.822,37.751000000000005,US,USA,United States,,,,,
1237,-111.9519,33.674800000000005,US,USA,United States,Phoenix,85054,AZ,480,753
1238,-111.6133,40.21809999999999,US,USA,United States,Provo,84606,UT,801,770
1239,-95.4739,29.830099999999987,US,USA,United States,Houston,77092,TX,713,618
1240,-97.822,37.751000000000005,US,USA,United States,,,,,
1241,-122.10210000000001,37.04480000000001,US,USA,United States,Santa Cruz,95060,CA,831,828
1242,-122.0574,37.41919999999999,US,USA,United States,Mountain View,94043,CA,650,807
1243,-95.6512,29.691900000000004,US,USA,United States,Houston,77083,TX,281,618
1244,-97.822,37.751000000000005,US,USA,United States,,,,,
1245,-97.822,37.751000000000005,US,USA,United States,,,,,
1246,-97.822,37.751000000000005,US,USA,United States,,,,,
1247,-97.822,37.751000000000005,US,USA,United States,,,,,
1248,-97.822,37.751000000000005,US,USA,United States,,,,,
1249,-97.822,37.751000000000005,US,USA,United States,,,,,
1250,-77.4728,39.048100000000005,US,USA,United States,Ashburn,20149,VA,703,511
1251,-77.3489,38.93109999999999,US,USA,United States,Reston,20191,VA,703,511
1252,-93.1754,44.9795,US,USA,United States,Saint Paul,55108,MN,651,613
1253,-97.822,37.751000000000005,US,USA,United States,,,,,
1254,-97.822,37.751000000000005,US,USA,United States,,,,,
1255,-97.822,37.751000000000005,US,USA,United States,,,,,
1256,-118.244,34.05439999999999,US,USA,United States,Los Angeles,90009,CA,310,803
1257,-82.4557,34.83260000000001,US,USA,United States,Greenville,29611,SC,864,567
1258,-97.822,37.751000000000005,US,USA,United States,,,,,
1259,-97.822,37.751000000000005,US,USA,United States,,,,,
1260,-97.822,37.751000000000005,US,USA,United States,,,,,
1261,-97.822,37.751000000000005,US,USA,United States,,,,,
1262,-122.0574,37.41919999999999,US,USA,United States,Mountain View,94043,CA,650,807
1263,-74.0052,40.72139999999999,US,USA,United States,New York,10013,NY,212,501
1264,-97.822,37.751000000000005,US,USA,United States,,,,,
1265,-77.2866,38.7851,US,USA,United States,Burke,22015,VA,703,511
1266,-77.555,43.179,US,USA,United States,Rochester,14609,NY,585,538
1267,-97.822,37.751000000000005,US,USA,United States,,,,,
1268,-97.822,37.751000000000005,US,USA,United States,,,,,
1269,-73.3624,40.815200000000004,US,USA,United States,Huntington Station,11746,NY,631,501
1270,-97.822,37.751000000000005,US,USA,United States,,,,,
1271,-90.3016,38.74619999999999,US,USA,United States,Saint Louis,63135,MO,314,609
1272,-119.3074,47.1901,US,USA,United States,Moses Lake,98837,WA,509,881
1273,-97.822,37.751000000000005,US,USA,United States,,,,,
1274,-82.9361,42.509600000000006,US,USA,United States,Roseville,48066,MI,586,505
1275,-118.4298,34.03550000000001,US,USA,United States,Los Angeles,90064,CA,310,803
1276,-97.822,37.751000000000005,US,USA,United States,,,,,
1277,-97.822,37.751000000000005,US,USA,United States,,,,,
1278,-97.822,37.751000000000005,US,USA,United States,,,,,
1279,-122.0574,37.41919999999999,US,USA,United States,Mountain View,94043,CA,650,807
1280,-97.822,37.751000000000005,US,USA,United States,,,,,
1281,-117.7345,34.085499999999996,US,USA,United States,Pomona,91767,CA,909,803
1282,-97.822,37.751000000000005,US,USA,United States,,,,,
1283,-122.0574,37.41919999999999,US,USA,United States,Mountain View,94043,CA,650,807
1284,-97.822,37.751000000000005,US,USA,United States,,,,,
1285,-111.6133,40.21809999999999,US,USA,United States,Provo,84606,UT,801,770
1286,-122.0574,37.41919999999999,US,USA,United States,Mountain View,94043,CA,650,807
1287,-97.822,37.751000000000005,US,USA,United States,,,,,
1288,-97.822,37.751000000000005,US,USA,United States,,,,,
1289,-77.4728,39.048100000000005,US,USA,United States,Ashburn,20149,VA,703,511
1290,-97.822,37.751000000000005,US,USA,United States,,,,,
1291,-97.822,37.751000000000005,US,USA,United States,,,,,
1292,-97.822,37.751000000000005,US,USA,United States,,,,,
1293,-97.822,37.751000000000005,US,USA,United States,,,,,
1294,-97.822,37.751000000000005,US,USA,United States,,,,,
1295,-97.822,37.751000000000005,US,USA,United States,,,,,
1296,-80.9626,37.33430000000001,US,USA,United States,Oakvale,24739,WV,,559
1297,-83.2307,42.465,US,USA,United States,Southfield,48075,MI,248,505
1298,-122.0574,37.41919999999999,US,USA,United States,Mountain View,94043,CA,650,807
1299,-97.822,37.751000000000005,US,USA,United States,,,,,
1300,-121.8914,37.33869999999999,US,USA,United States,San Jose,95113,CA,408,807
1301,-77.4728,39.048100000000005,US,USA,United States,Ashburn,20149,VA,703,511
1302,-96.3917,33.995000000000005,US,USA,United States,Durant,74701,OK,580,657
1303,-90.0069,30.41839999999999,US,USA,United States,Mandeville,70471,LA,985,622
1304,-97.822,37.751000000000005,US,USA,United States,,,,,
1305,-97.822,37.751000000000005,US,USA,United States,,,,,
1306,-77.4728,39.048100000000005,US,USA,United States,Ashburn,20149,VA,703,511
1307,-119.6322,36.27600000000001,US,USA,United States,Hanford,93230,CA,559,866
1308,-97.822,37.751000000000005,US,USA,United States,,,,,
1309,-118.4041,33.9571,US,USA,United States,Los Angeles,90045,CA,310,803
1310,-97.822,37.751000000000005,US,USA,United States,,,,,
1311,-97.822,37.751000000000005,US,USA,United States,,,,,
1312,-111.8147,41.69290000000001,US,USA,United States,Providence,84332,UT,435,770
1313,-97.822,37.751000000000005,US,USA,United States,,,,,
1314,-95.4739,29.830099999999987,US,USA,United States,Houston,77092,TX,713,618
1315,-97.822,37.751000000000005,US,USA,United States,,,,,
1316,-97.822,37.751000000000005,US,USA,United States,,,,,
1317,-96.2837,30.567000000000007,US,USA,United States,College Station,77845,TX,979,625
1318,-101.821,35.20060000000001,US,USA,United States,Amarillo,79102,TX,806,634
1319,-118.4041,33.9571,US,USA,United States,Los Angeles,90045,CA,310,803
1320,-77.8028,34.308400000000006,US,USA,United States,Wilmington,28411,NC,910,550
1321,-97.822,37.751000000000005,US,USA,United States,,,,,
1322,-75.4083,40.0548,US,USA,United States,Wayne,19087,PA,610,504
1323,-97.822,37.751000000000005,US,USA,United States,,,,,
1324,-77.6082,43.12989999999999,US,USA,United States,Rochester,14620,NY,585,538
1325,-97.822,37.751000000000005,US,USA,United States,,,,,
1326,-90.3199,38.54910000000001,US,USA,United States,Saint Louis,63123,MO,314,609
1327,-97.822,37.751000000000005,US,USA,United States,,,,,
1328,-111.6133,40.21809999999999,US,USA,United States,Provo,84606,UT,801,770
1329,-97.822,37.751000000000005,US,USA,United States,,,,,
1330,-122.3341,47.610299999999995,US,USA,United States,Seattle,98101,WA,206,819
1331,-90.1922,38.63120000000001,US,USA,United States,Saint Louis,63101,MO,314,609
1332,-122.1206,47.68010000000001,US,USA,United States,Redmond,98052,WA,425,819
1333,-97.822,37.751000000000005,US,USA,United States,,,,,
1334,-97.822,37.751000000000005,US,USA,United States,,,,,
1335,-75.1711,40.07230000000001,US,USA,United States,Philadelphia,19150,PA,215,504
1336,-121.9829,37.56700000000001,US,USA,United States,Fremont,94536,CA,510,807
1337,-97.822,37.751000000000005,US,USA,United States,,,,,
1338,-97.822,37.751000000000005,US,USA,United States,,,,,
1339,-73.8944,40.670199999999994,US,USA,United States,Brooklyn,11207,NY,718,501
1340,-111.9171,33.4357,US,USA,United States,Tempe,85281,AZ,480,753
1341,-97.822,37.751000000000005,US,USA,United States,,,,,
1342,-97.822,37.751000000000005,US,USA,United States,,,,,
1343,-111.6133,40.21809999999999,US,USA,United States,Provo,84606,UT,801,770
1344,-97.822,37.751000000000005,US,USA,United States,,,,,
1345,-97.822,37.751000000000005,US,USA,United States,,,,,
1346,-72.5754,44.260099999999994,US,USA,United States,Montpelier,05601,VT,802,523
1347,-84.4432,33.793000000000006,US,USA,United States,Atlanta,30318,GA,404,524
1348,-97.822,37.751000000000005,US,USA,United States,,,,,
1349,-97.822,37.751000000000005,US,USA,United States,,,,,
1350,-97.822,37.751000000000005,US,USA,United States,,,,,
1351,-97.822,37.751000000000005,US,USA,United States,,,,,
1352,-97.822,37.751000000000005,US,USA,United States,,,,,
1353,-97.822,37.751000000000005,US,USA,United States,,,,,
1354,-87.6376,41.88239999999999,US,USA,United States,Chicago,60606,IL,312,602
1355,-74.7633,39.636300000000006,US,USA,United States,Hammonton,08037,NJ,609,504
1356,-73.9782,40.7449,US,USA,United States,New York,10016,NY,212,501
1357,-97.822,37.751000000000005,US,USA,United States,,,,,
1358,-111.8906,33.61189999999999,US,USA,United States,Scottsdale,85260,AZ,480,753
1359,-74.269,40.694500000000005,US,USA,United States,Union,07083,NJ,908,501
1360,-97.822,37.751000000000005,US,USA,United States,,,,,
1361,-76.3189,40.0754,US,USA,United States,Lancaster,17601,PA,717,566
1362,-97.822,37.751000000000005,US,USA,United States,,,,,
1363,-74.0054,41.43530000000001,US,USA,United States,Cornwall On Hudson,12520,NY,845,501
1364,-74.0052,40.72139999999999,US,USA,United States,New York,10013,NY,212,501
1365,-97.822,37.751000000000005,US,USA,United States,,,,,
1366,-97.822,37.751000000000005,US,USA,United States,,,,,
1367,-87.6272,41.8776,US,USA,United States,Chicago,60604,IL,312,602
1368,-97.822,37.751000000000005,US,USA,United States,,,,,
1369,-122.4194,37.7749,US,USA,United States,San Francisco,94119,CA,415,807
1370,-94.566,39.10679999999999,US,USA,United States,Kansas City,64106,MO,816,616
1371,-97.822,37.751000000000005,US,USA,United States,,,,,
1372,-97.822,37.751000000000005,US,USA,United States,,,,,
1373,-87.6441,41.88249999999999,US,USA,United States,Chicago,60661,IL,312,602
1374,-77.3489,38.93109999999999,US,USA,United States,Reston,20191,VA,703,511
1375,-74.6704,39.856599999999986,US,USA,United States,Vincentown,08088,NJ,609,504
1376,-78.6868,36.105199999999996,US,USA,United States,Creedmoor,27522,NC,919,560
1377,-97.822,37.751000000000005,US,USA,United States,,,,,
1378,-97.822,37.751000000000005,US,USA,United States,,,,,
1379,-97.822,37.751000000000005,US,USA,United States,,,,,
1380,-97.822,37.751000000000005,US,USA,United States,,,,,
1381,-111.6133,40.21809999999999,US,USA,United States,Provo,84606,UT,801,770
1382,-97.822,37.751000000000005,US,USA,United States,,,,,
1383,-97.822,37.751000000000005,US,USA,United States,,,,,
1384,-78.8781,42.88640000000001,US,USA,United States,Buffalo,14202,NY,716,514
1385,-97.822,37.751000000000005,US,USA,United States,,,,,
1386,-97.822,37.751000000000005,US,USA,United States,,,,,
1387,-97.822,37.751000000000005,US,USA,United States,,,,,
1388,-84.8211,35.1155,US,USA,United States,Cleveland,37323,TN,423,575
1389,-121.8914,37.33869999999999,US,USA,United States,San Jose,95113,CA,408,807
1390,-97.822,37.751000000000005,US,USA,United States,,,,,
1391,-84.636,42.72569999999999,US,USA,United States,Lansing,48917,MI,517,551
1392,-86.1665,39.7851,US,USA,United States,Indianapolis,46202,IN,317,527
1393,-111.6133,40.21809999999999,US,USA,United States,Provo,84606,UT,801,770
1394,-97.822,37.751000000000005,US,USA,United States,,,,,
1395,-97.822,37.751000000000005,US,USA,United States,,,,,
1396,-97.822,37.751000000000005,US,USA,United States,,,,,
1397,-97.822,37.751000000000005,US,USA,United States,,,,,
1398,-111.8906,33.61189999999999,US,USA,United States,Scottsdale,85260,AZ,480,753
1399,-97.822,37.751000000000005,US,USA,United States,,,,,
1400,-97.822,37.751000000000005,US,USA,United States,,,,,
1401,-92.2302,34.9024,US,USA,United States,Sherwood,72120,AR,501,693
1402,-97.822,37.751000000000005,US,USA,United States,,,,,
1403,-118.2641,34.04939999999999,US,USA,United States,Los Angeles,90014,CA,213,803
1404,-97.822,37.751000000000005,US,USA,United States,,,,,
1405,-122.0574,37.41919999999999,US,USA,United States,Mountain View,94043,CA,650,807
1406,-97.822,37.751000000000005,US,USA,United States,,,,,
1407,-97.822,37.751000000000005,US,USA,United States,,,,,
1408,-97.822,37.751000000000005,US,USA,United States,,,,,
1409,-74.0813,40.878299999999996,US,USA,United States,Lodi,07644,NJ,973,501
1410,-97.822,37.751000000000005,US,USA,United States,,,,,
1411,-97.822,37.751000000000005,US,USA,United States,,,,,
1412,-117.7986,33.813799999999986,US,USA,United States,Orange,92867,CA,714,803
1413,-97.822,37.751000000000005,US,USA,United States,,,,,
1414,-73.8988,40.93119999999999,US,USA,United States,Yonkers,10702,NY,914,501
1415,-97.822,37.751000000000005,US,USA,United States,,,,,
1416,-97.822,37.751000000000005,US,USA,United States,,,,,
1417,-121.9854,37.3501,US,USA,United States,Santa Clara,95051,CA,408,807
1418,-97.822,37.751000000000005,US,USA,United States,,,,,
1419,-119.688,45.86959999999999,US,USA,United States,Boardman,97818,OR,541,810
1420,-122.0574,37.41919999999999,US,USA,United States,Mountain View,94043,CA,650,807
1421,-97.822,37.751000000000005,US,USA,United States,,,,,
1422,-77.4728,39.048100000000005,US,USA,United States,Ashburn,20149,VA,703,511
1423,-97.822,37.751000000000005,US,USA,United States,,,,,
1424,-122.0574,37.41919999999999,US,USA,United States,Mountain View,94043,CA,650,807
1425,-122.0574,37.41919999999999,US,USA,United States,Mountain View,94043,CA,650,807
1426,-119.688,45.86959999999999,US,USA,United States,Boardman,97818,OR,541,810
1427,-97.822,37.751000000000005,US,USA,United States,,,,,
1428,-77.4728,39.048100000000005,US,USA,United States,Ashburn,20149,VA,703,511
1429,-97.822,37.751000000000005,US,USA,United States,,,,,
1430,-84.636,42.72569999999999,US,USA,United States,Lansing,48917,MI,517,551
1431,-82.8508,36.08279999999999,US,USA,United States,Greeneville,37743,TN,423,531
1432,-111.8906,33.61189999999999,US,USA,United States,Scottsdale,85260,AZ,480,753
1433,-97.822,37.751000000000005,US,USA,United States,,,,,
1434,-117.8535,34.01150000000001,US,USA,United States,Walnut,91789,CA,909,803
1435,-97.822,37.751000000000005,US,USA,United States,,,,,
1436,-97.822,37.751000000000005,US,USA,United States,,,,,
1437,-97.822,37.751000000000005,US,USA,United States,,,,,
1438,-97.822,37.751000000000005,US,USA,United States,,,,,
1439,-97.822,37.751000000000005,US,USA,United States,,,,,
1440,-118.2641,34.04939999999999,US,USA,United States,Los Angeles,90014,CA,213,803
1441,-118.0835,34.52000000000001,US,USA,United States,Palmdale,93550,CA,661,803
1442,-97.822,37.751000000000005,US,USA,United States,,,,,
1443,-97.822,37.751000000000005,US,USA,United States,,,,,
1444,-77.4728,39.048100000000005,US,USA,United States,Ashburn,20149,VA,703,511
1445,-96.8217,32.778699999999986,US,USA,United States,Dallas,75270,TX,214,623
1446,-97.822,37.751000000000005,US,USA,United States,,,,,
1447,-97.822,37.751000000000005,US,USA,United States,,,,,
1448,-111.6133,40.21809999999999,US,USA,United States,Provo,84606,UT,801,770
1449,-97.822,37.751000000000005,US,USA,United States,,,,,
1450,-97.822,37.751000000000005,US,USA,United States,,,,,
1451,-97.822,37.751000000000005,US,USA,United States,,,,,
1452,-97.822,37.751000000000005,US,USA,United States,,,,,
1453,-97.822,37.751000000000005,US,USA,United States,,,,,
1454,-97.822,37.751000000000005,US,USA,United States,,,,,
1455,-97.822,37.751000000000005,US,USA,United States,,,,,
1456,-97.822,37.751000000000005,US,USA,United States,,,,,
1457,-97.822,37.751000000000005,US,USA,United States,,,,,
1458,-97.822,37.751000000000005,US,USA,United States,,,,,
1459,-97.822,37.751000000000005,US,USA,United States,,,,,
1460,-97.822,37.751000000000005,US,USA,United States,,,,,
1461,-71.5208,41.477300000000014,US,USA,United States,Kingston,02881,RI,401,521
1462,-97.822,37.751000000000005,US,USA,United States,,,,,
1463,-97.822,37.751000000000005,US,USA,United States,,,,,
1464,-97.822,37.751000000000005,US,USA,United States,,,,,
1465,-88.0833,41.787000000000006,US,USA,United States,Lisle,60532,IL,630,602
1466,-118.27799999999999,34.058400000000006,US,USA,United States,Los Angeles,90017,CA,213,803
1467,-97.822,37.751000000000005,US,USA,United States,,,,,
1468,-73.0627,41.48779999999999,US,USA,United States,Naugatuck,06770,CT,203,533
1469,-97.822,37.751000000000005,US,USA,United States,,,,,
1470,-97.822,37.751000000000005,US,USA,United States,,,,,
1471,-122.0574,37.41919999999999,US,USA,United States,Mountain View,94043,CA,650,807
1472,-89.9813,35.14660000000001,US,USA,United States,Memphis,38112,TN,901,640
1473,-97.822,37.751000000000005,US,USA,United States,,,,,
1474,-97.822,37.751000000000005,US,USA,United States,,,,,
1475,-97.822,37.751000000000005,US,USA,United States,,,,,
1476,-84.7635,34.74170000000001,US,USA,United States,Chatsworth,30705,GA,706,575
1477,-97.822,37.751000000000005,US,USA,United States,,,,,
1478,-97.822,37.751000000000005,US,USA,United States,,,,,
1479,-97.822,37.751000000000005,US,USA,United States,,,,,
1480,-77.4728,39.048100000000005,US,USA,United States,Ashburn,20149,VA,703,511
1481,-117.8535,34.01150000000001,US,USA,United States,Walnut,91789,CA,909,803
1482,-97.822,37.751000000000005,US,USA,United States,,,,,
1483,-92.5044,35.0522,US,USA,United States,Conway,72034,AR,501,693
1484,-97.822,37.751000000000005,US,USA,United States,,,,,
1485,-97.822,37.751000000000005,US,USA,United States,,,,,
1486,-97.822,37.751000000000005,US,USA,United States,,,,,
1487,-101.879,35.16130000000001,US,USA,United States,Amarillo,79109,TX,806,634
1488,-97.822,37.751000000000005,US,USA,United States,,,,,
1489,-97.822,37.751000000000005,US,USA,United States,,,,,
1490,-74.0203,40.688799999999986,US,USA,United States,New York,10004,NY,212,501
1491,-122.0574,37.41919999999999,US,USA,United States,Mountain View,94043,CA,650,807
1492,-89.3779,36.012400000000014,US,USA,United States,Dyersburg,38024,TN,731,640
1493,-97.822,37.751000000000005,US,USA,United States,,,,,
1494,-97.822,37.751000000000005,US,USA,United States,,,,,
1495,-97.822,37.751000000000005,US,USA,United States,,,,,
1496,-88.2104,41.89689999999999,US,USA,United States,West Chicago,60185,IL,630,602
1497,-74.0052,40.72139999999999,US,USA,United States,New York,10013,NY,212,501
1498,-97.822,37.751000000000005,US,USA,United States,,,,,
1499,-97.822,37.751000000000005,US,USA,United States,,,,,
1500,-97.822,37.751000000000005,US,USA,United States,,,,,
1501,-122.3123,47.542,US,USA,United States,Seattle,98108,WA,206,819
1502,-84.636,42.72569999999999,US,USA,United States,Lansing,48917,MI,517,551
1503,-97.822,37.751000000000005,US,USA,United States,,,,,
1504,-97.822,37.751000000000005,US,USA,United States,,,,,
1505,-97.822,37.751000000000005,US,USA,United States,,,,,
1506,-97.822,37.751000000000005,US,USA,United States,,,,,
1507,-97.822,37.751000000000005,US,USA,United States,,,,,
1508,-97.822,37.751000000000005,US,USA,United States,,,,,
1509,-111.6133,40.21809999999999,US,USA,United States,Provo,84606,UT,801,770
1510,-97.822,37.751000000000005,US,USA,United States,,,,,
1511,-97.822,37.751000000000005,US,USA,United States,,,,,
1512,-111.8906,33.61189999999999,US,USA,United States,Scottsdale,85260,AZ,480,753
1513,-97.822,37.751000000000005,US,USA,United States,,,,,
1514,-96.8284,46.854299999999995,US,USA,United States,Fargo,58103,ND,701,724
1515,-77.4728,39.048100000000005,US,USA,United States,Ashburn,20149,VA,703,511
1516,-97.822,37.751000000000005,US,USA,United States,,,,,
1517,-97.822,37.751000000000005,US,USA,United States,,,,,
1518,-111.8906,33.61189999999999,US,USA,United States,Scottsdale,85260,AZ,480,753
1519,-117.8612,33.92689999999999,US,USA,United States,Brea,92821,CA,714,803
1520,-111.6133,40.21809999999999,US,USA,United States,Provo,84606,UT,801,770
1521,-121.8914,37.33869999999999,US,USA,United States,San Jose,95113,CA,408,807
1522,-122.0574,37.41919999999999,US,USA,United States,Mountain View,94043,CA,650,807
1523,-118.27799999999999,34.058400000000006,US,USA,United States,Los Angeles,90017,CA,213,803
1524,-76.5894,39.26419999999999,US,USA,United States,Baltimore,21230,MD,410,512
1525,-95.9404,41.25630000000001,US,USA,United States,Omaha,68197,NE,402,652
1526,-97.822,37.751000000000005,US,USA,United States,,,,,
1527,-97.822,37.751000000000005,US,USA,United States,,,,,
1528,-97.822,37.751000000000005,US,USA,United States,,,,,
1529,-97.822,37.751000000000005,US,USA,United States,,,,,
1530,-118.2641,34.04939999999999,US,USA,United States,Los Angeles,90014,CA,213,803
1531,-121.4962,38.6164,US,USA,United States,Sacramento,95833,CA,916,862
1532,-118.2641,34.04939999999999,US,USA,United States,Los Angeles,90014,CA,213,803
1533,-97.822,37.751000000000005,US,USA,United States,,,,,
1534,-91.9279,30.120299999999986,US,USA,United States,Broussard,70518,LA,337,642
1535,-95.4739,29.830099999999987,US,USA,United States,Houston,77092,TX,713,618
1536,-97.822,37.751000000000005,US,USA,United States,,,,,
1537,-77.3489,38.93109999999999,US,USA,United States,Reston,20191,VA,703,511
1538,-97.822,37.751000000000005,US,USA,United States,,,,,
1539,-97.822,37.751000000000005,US,USA,United States,,,,,
1540,-73.9885,40.73169999999999,US,USA,United States,New York,10003,NY,212,501
1541,-97.822,37.751000000000005,US,USA,United States,,,,,
1542,-122.0574,37.41919999999999,US,USA,United States,Mountain View,94043,CA,650,807
1543,-97.822,37.751000000000005,US,USA,United States,,,,,
1544,-73.8158,42.71610000000001,US,USA,United States,Albany,12205,NY,518,532
1545,-106.6729,35.04429999999999,US,USA,United States,Albuquerque,87131,NM,505,790
1546,-97.822,37.751000000000005,US,USA,United States,,,,,
1547,-97.822,37.751000000000005,US,USA,United States,,,,,
1548,-80.8967,35.8826,US,USA,United States,Statesville,28625,NC,704,517
1549,-122.1206,47.68010000000001,US,USA,United States,Redmond,98052,WA,425,819
1550,-97.822,37.751000000000005,US,USA,United States,,,,,
1551,-97.822,37.751000000000005,US,USA,United States,,,,,
1552,-76.4856,38.210800000000006,US,USA,United States,Great Mills,20634,MD,301,511
1553,-97.822,37.751000000000005,US,USA,United States,,,,,
1554,-73.9855,40.661699999999996,US,USA,United States,Brooklyn,11215,NY,718,501
1555,-97.822,37.751000000000005,US,USA,United States,,,,,
1556,-118.4041,33.9571,US,USA,United States,Los Angeles,90045,CA,310,803
1557,-97.822,37.751000000000005,US,USA,United States,,,,,
1558,-74.0052,40.72139999999999,US,USA,United States,New York,10013,NY,212,501
1559,-97.822,37.751000000000005,US,USA,United States,,,,,
1560,-94.566,39.10679999999999,US,USA,United States,Kansas City,64106,MO,816,616
1561,-97.822,37.751000000000005,US,USA,United States,,,,,
1562,-97.822,37.751000000000005,US,USA,United States,,,,,
1563,-97.822,37.751000000000005,US,USA,United States,,,,,
1564,-97.822,37.751000000000005,US,USA,United States,,,,,
1565,-97.822,37.751000000000005,US,USA,United States,,,,,
1566,-95.4739,29.830099999999987,US,USA,United States,Houston,77092,TX,713,618
1567,-111.6133,40.21809999999999,US,USA,United States,Provo,84606,UT,801,770
1568,-97.5769,35.38720000000001,US,USA,United States,Oklahoma City,73159,OK,405,650
1569,-97.822,37.751000000000005,US,USA,United States,,,,,
1570,-118.40100000000001,33.88929999999999,US,USA,United States,Manhattan Beach,90266,CA,310,803
1571,-95.4739,29.830099999999987,US,USA,United States,Houston,77092,TX,713,618
1572,-117.904,33.97819999999999,US,USA,United States,Rowland Heights,91748,CA,626,803
1573,-121.8914,37.33879999999999,US,USA,United States,San Jose,95141,CA,408,807
1574,-77.4728,39.048100000000005,US,USA,United States,Ashburn,20149,VA,703,511
1575,-111.6133,40.21809999999999,US,USA,United States,Provo,84606,UT,801,770
1576,-84.9112,34.49430000000001,US,USA,United States,Calhoun,30701,GA,706,524
1577,-98.5301,33.846599999999995,US,USA,United States,Wichita Falls,76308,TX,940,627
1578,-97.822,37.751000000000005,US,USA,United States,,,,,
1579,-112.1772,33.62219999999999,US,USA,United States,Glendale,85306,AZ,602,753
1580,-97.822,37.751000000000005,US,USA,United States,,,,,
1581,-97.822,37.751000000000005,US,USA,United States,,,,,
1582,-97.822,37.751000000000005,US,USA,United States,,,,,
1583,-77.4728,39.048100000000005,US,USA,United States,Ashburn,20149,VA,703,511
1584,-83.2752,42.33439999999999,US,USA,United States,Dearborn Heights,48127,MI,313,505
1585,-87.7828,33.94630000000001,US,USA,United States,Winfield,35594,AL,205,630
1586,-97.822,37.751000000000005,US,USA,United States,,,,,
1587,-74.006,40.71430000000001,US,USA,United States,New York,10118,NY,212,501
1588,-77.4728,39.048100000000005,US,USA,United States,Ashburn,20149,VA,703,511
1589,-85.6153,38.215599999999995,US,USA,United States,Louisville,40220,KY,502,529
1590,-122.0574,37.41919999999999,US,USA,United States,Mountain View,94043,CA,650,807
1591,-97.822,37.751000000000005,US,USA,United States,,,,,
1592,-97.822,37.751000000000005,US,USA,United States,,,,,
1593,-118.81880000000001,34.196499999999986,US,USA,United States,Thousand Oaks,91362,CA,805,803
1594,-73.9972,40.7517,US,USA,United States,New York,10001,NY,212,501
1595,-87.83,42.622600000000006,US,USA,United States,Kenosha,53140,WI,262,617
1596,-97.822,37.751000000000005,US,USA,United States,,,,,
1597,-97.822,37.751000000000005,US,USA,United States,,,,,
1598,-97.822,37.751000000000005,US,USA,United States,,,,,
1599,-78.8301,42.70910000000001,US,USA,United States,Hamburg,14075,NY,716,514
1600,-97.822,37.751000000000005,US,USA,United States,,,,,
1601,-79.9791,40.42230000000001,US,USA,United States,Pittsburgh,15203,PA,412,508
1602,-97.822,37.751000000000005,US,USA,United States,,,,,
1603,-97.822,37.751000000000005,US,USA,United States,,,,,
1604,-97.822,37.751000000000005,US,USA,United States,,,,,
1605,-97.822,37.751000000000005,US,USA,United States,,,,,
1606,-97.822,37.751000000000005,US,USA,United States,,,,,
1607,-97.822,37.751000000000005,US,USA,United States,,,,,
1608,-73.5851,40.67840000000001,US,USA,United States,Roosevelt,11575,NY,516,501
1609,-106.7454,39.15559999999999,US,USA,United States,Aspen,81611,CO,970,751
1610,-97.822,37.751000000000005,US,USA,United States,,,,,
1611,-122.0574,37.41919999999999,US,USA,United States,Mountain View,94043,CA,650,807
1612,-117.2476,33.92240000000001,US,USA,United States,Moreno Valley,92553,CA,951,803
1613,-111.6133,40.21809999999999,US,USA,United States,Provo,84606,UT,801,770
1614,-97.822,37.751000000000005,US,USA,United States,,,,,
1615,-90.5725,41.48670000000001,US,USA,United States,Rock Island,61201,IL,309,682
1616,-97.822,37.751000000000005,US,USA,United States,,,,,
1617,-118.2747,33.9204,US,USA,United States,Los Angeles,90061,CA,323,803
1618,-122.47149999999999,45.67410000000001,US,USA,United States,Vancouver,98682,WA,360,820
1619,-111.8906,33.61189999999999,US,USA,United States,Scottsdale,85260,AZ,480,753
1620,-97.822,37.751000000000005,US,USA,United States,,,,,
1621,-111.9519,33.674800000000005,US,USA,United States,Phoenix,85054,AZ,480,753
1622,-97.822,37.751000000000005,US,USA,United States,,,,,
1623,-124.1528,40.800399999999996,US,USA,United States,Eureka,95501,CA,707,802
1624,-97.822,37.751000000000005,US,USA,United States,,,,,
1625,-97.822,37.751000000000005,US,USA,United States,,,,,
1626,-84.3846,33.83789999999999,US,USA,United States,Atlanta,30305,GA,404,524
1627,-97.822,37.751000000000005,US,USA,United States,,,,,
1628,-118.2641,34.04939999999999,US,USA,United States,Los Angeles,90014,CA,213,803
1629,-73.6957,40.760099999999994,US,USA,United States,New Hyde Park,11042,NY,516,501
1630,-97.822,37.751000000000005,US,USA,United States,,,,,
1631,-97.822,37.751000000000005,US,USA,United States,,,,,
1632,-97.822,37.751000000000005,US,USA,United States,,,,,
1633,-97.822,37.751000000000005,US,USA,United States,,,,,
1634,-97.822,37.751000000000005,US,USA,United States,,,,,
1635,-83.9709,43.4161,US,USA,United States,Saginaw,48602,MI,989,513
1636,-97.822,37.751000000000005,US,USA,United States,,,,,
1637,-97.822,37.751000000000005,US,USA,United States,,,,,
1638,-97.822,37.751000000000005,US,USA,United States,,,,,
1639,-97.822,37.751000000000005,US,USA,United States,,,,,
1640,-97.822,37.751000000000005,US,USA,United States,,,,,
1641,-83.2307,42.465,US,USA,United States,Southfield,48075,MI,248,505
1642,-97.822,37.751000000000005,US,USA,United States,,,,,
1643,-109.5696,40.551199999999994,US,USA,United States,Vernal,84078,UT,435,770
1644,-81.9876,37.7662,US,USA,United States,Chauncey,25612,WV,304,564
1645,-75.4083,40.0548,US,USA,United States,Wayne,19087,PA,610,504
1646,-97.822,37.751000000000005,US,USA,United States,,,,,
1647,-118.81880000000001,34.196499999999986,US,USA,United States,Thousand Oaks,91362,CA,805,803
1648,-111.9519,33.674800000000005,US,USA,United States,Phoenix,85054,AZ,480,753
1649,-97.822,37.751000000000005,US,USA,United States,,,,,
1650,-97.822,37.751000000000005,US,USA,United States,,,,,
1651,-97.822,37.751000000000005,US,USA,United States,,,,,
1652,-118.27799999999999,34.058400000000006,US,USA,United States,Los Angeles,90017,CA,213,803
1653,-111.9519,33.674800000000005,US,USA,United States,Phoenix,85054,AZ,480,753
1654,-111.8906,33.61189999999999,US,USA,United States,Scottsdale,85260,AZ,480,753
1655,-97.822,37.751000000000005,US,USA,United States,,,,,
1656,-97.822,37.751000000000005,US,USA,United States,,,,,
1657,-97.822,37.751000000000005,US,USA,United States,,,,,
1658,-96.8,32.7877,US,USA,United States,Dallas,75201,TX,214,623
1659,-87.6517,41.848299999999995,US,USA,United States,Chicago,60602,IL,312,602
1660,-97.822,37.751000000000005,US,USA,United States,,,,,
1661,-97.822,37.751000000000005,US,USA,United States,,,,,
1662,-96.6534,40.85300000000001,US,USA,United States,Lincoln,68504,NE,402,722
1663,-75.5281,39.7157,US,USA,United States,Wilmington,19801,DE,302,504
1664,-97.822,37.751000000000005,US,USA,United States,,,,,
1665,-97.822,37.751000000000005,US,USA,United States,,,,,
1666,-97.822,37.751000000000005,US,USA,United States,,,,,
1667,-117.8535,34.01150000000001,US,USA,United States,Walnut,91789,CA,909,803
1668,-91.6064,43.98480000000001,US,USA,United States,Winona,55987,MN,507,702
1669,-119.07560000000001,35.34559999999999,US,USA,United States,Bakersfield,93309,CA,661,800
1670,-97.822,37.751000000000005,US,USA,United States,,,,,
1671,-79.9791,40.42230000000001,US,USA,United States,Pittsburgh,15203,PA,412,508
1672,-97.822,37.751000000000005,US,USA,United States,,,,,
1673,-97.822,37.751000000000005,US,USA,United States,,,,,
1674,-97.822,37.751000000000005,US,USA,United States,,,,,
1675,-121.8914,37.33879999999999,US,USA,United States,San Jose,95141,CA,408,807
1676,-83.0235,39.96530000000001,US,USA,United States,Columbus,43215,OH,614,535
1677,-104.9995,39.7525,US,USA,United States,Denver,80202,CO,303,751
1678,-97.822,37.751000000000005,US,USA,United States,,,,,
1679,-88.1507,40.4384,US,USA,United States,Paxton,60957,IL,217,648
1680,-122.08080000000001,37.668800000000005,US,USA,United States,Hayward,94543,CA,510,807
1681,-97.822,37.751000000000005,US,USA,United States,,,,,
1682,-122.0574,37.41919999999999,US,USA,United States,Mountain View,94043,CA,650,807
1683,-118.27799999999999,34.058400000000006,US,USA,United States,Los Angeles,90017,CA,213,803
1684,-111.8906,33.61189999999999,US,USA,United States,Scottsdale,85260,AZ,480,753
1685,-97.822,37.751000000000005,US,USA,United States,,,,,
1686,-97.822,37.751000000000005,US,USA,United States,,,,,
1687,-97.822,37.751000000000005,US,USA,United States,,,,,
1688,-82.1074,41.09970000000001,US,USA,United States,Spencer,44275,OH,330,510
1689,-118.2641,34.04939999999999,US,USA,United States,Los Angeles,90014,CA,213,803
1690,-84.636,42.72569999999999,US,USA,United States,Lansing,48917,MI,517,551
1691,-97.822,37.751000000000005,US,USA,United States,,,,,
1692,-97.822,37.751000000000005,US,USA,United States,,,,,
1693,-97.822,37.751000000000005,US,USA,United States,,,,,
1694,-73.3624,40.815200000000004,US,USA,United States,Huntington Station,11746,NY,631,501
1695,-97.822,37.751000000000005,US,USA,United States,,,,,
1696,-122.4842,37.72300000000001,US,USA,United States,San Francisco,94132,CA,415,807
1697,-79.9791,40.42230000000001,US,USA,United States,Pittsburgh,15203,PA,412,508
1698,-97.822,37.751000000000005,US,USA,United States,,,,,
1699,-111.8147,41.69290000000001,US,USA,United States,Providence,84332,UT,435,770
1700,-111.8906,33.61189999999999,US,USA,United States,Scottsdale,85260,AZ,480,753
1701,-118.2584,34.009299999999996,US,USA,United States,Los Angeles,90011,CA,323,803
1702,-97.822,37.751000000000005,US,USA,United States,,,,,
1703,-111.8147,41.69290000000001,US,USA,United States,Providence,84332,UT,435,770
1704,-94.5699,39.272099999999995,US,USA,United States,Kansas City,64155,MO,816,616
1705,-118.27799999999999,34.058400000000006,US,USA,United States,Los Angeles,90017,CA,213,803
1706,-84.636,42.72569999999999,US,USA,United States,Lansing,48917,MI,517,551
1707,-84.3846,33.83789999999999,US,USA,United States,Atlanta,30305,GA,404,524
1708,-97.822,37.751000000000005,US,USA,United States,,,,,
1709,-97.822,37.751000000000005,US,USA,United States,,,,,
1710,-97.822,37.751000000000005,US,USA,United States,,,,,
1711,-97.822,37.751000000000005,US,USA,United States,,,,,
1712,-97.822,37.751000000000005,US,USA,United States,,,,,
1713,-99.1294,29.733100000000007,US,USA,United States,Bandera,78003,TX,830,641
1714,-97.822,37.751000000000005,US,USA,United States,,,,,
1715,-97.822,37.751000000000005,US,USA,United States,,,,,
1716,-97.822,37.751000000000005,US,USA,United States,,,,,
1717,-111.6133,40.21809999999999,US,USA,United States,Provo,84606,UT,801,770
1718,-97.822,37.751000000000005,US,USA,United States,,,,,
1719,-73.9906,40.6944,US,USA,United States,Brooklyn,11201,NY,718,501
1720,-97.822,37.751000000000005,US,USA,United States,,,,,
1721,-97.822,37.751000000000005,US,USA,United States,,,,,
1722,-87.9543,41.38820000000001,US,USA,United States,Manhattan,60442,IL,815,602
1723,-73.6957,40.760099999999994,US,USA,United States,New Hyde Park,11042,NY,516,501
1724,-97.822,37.751000000000005,US,USA,United States,,,,,
1725,-77.2497,38.658199999999994,US,USA,United States,,,VA,,
1726,-97.822,37.751000000000005,US,USA,United States,,,,,
1727,-118.2641,34.04939999999999,US,USA,United States,Los Angeles,90014,CA,213,803
1728,-74.1724,40.73570000000001,US,USA,United States,Newark,07175,NJ,973,501
1729,-97.822,37.751000000000005,US,USA,United States,,,,,
1730,-122.0574,37.41919999999999,US,USA,United States,Mountain View,94043,CA,650,807
1731,-97.822,37.751000000000005,US,USA,United States,,,,,
1732,-119.688,45.86959999999999,US,USA,United States,Boardman,97818,OR,541,810
1733,-117.8535,34.01150000000001,US,USA,United States,Walnut,91789,CA,909,803
1734,-97.822,37.751000000000005,US,USA,United States,,,,,
1735,-97.822,37.751000000000005,US,USA,United States,,,,,
1736,-73.9235,40.70349999999999,US,USA,United States,Brooklyn,11237,NY,347,501
1737,-97.822,37.751000000000005,US,USA,United States,,,,,
1738,-97.822,37.751000000000005,US,USA,United States,,,,,
1739,-122.0574,37.41919999999999,US,USA,United States,Mountain View,94043,CA,650,807
1740,-97.822,37.751000000000005,US,USA,United States,,,,,
1741,-97.822,37.751000000000005,US,USA,United States,,,,,
1742,-97.822,37.751000000000005,US,USA,United States,,,,,
1743,-97.822,37.751000000000005,US,USA,United States,,,,,
1744,-115.0739,36.03120000000001,US,USA,United States,Henderson,89074,NV,702,839
1745,-97.822,37.751000000000005,US,USA,United States,,,,,
1746,-97.1515,32.95160000000001,US,USA,United States,Southlake,76092,TX,817,623
1747,-97.822,37.751000000000005,US,USA,United States,,,,,
1748,-112.3311,33.590900000000005,US,USA,United States,El Mirage,85335,AZ,623,753
1749,-97.822,37.751000000000005,US,USA,United States,,,,,
1750,-98.3987,29.4889,US,USA,United States,San Antonio,78218,TX,210,641
1751,-82.0967,29.165400000000005,US,USA,United States,Ocala,34471,FL,352,534
1752,-97.822,37.751000000000005,US,USA,United States,,,,,
1753,-97.822,37.751000000000005,US,USA,United States,,,,,
1754,-97.822,37.751000000000005,US,USA,United States,,,,,
1755,-117.2481,32.86670000000001,US,USA,United States,La Jolla,92037,CA,858,825
1756,-118.2641,34.04939999999999,US,USA,United States,Los Angeles,90014,CA,213,803
1757,-96.8353,32.9299,US,USA,United States,Dallas,75244,TX,972,623
1758,-118.44409999999999,34.2287,US,USA,United States,Panorama City,91402,CA,818,803
1759,-97.822,37.751000000000005,US,USA,United States,,,,,
1760,-97.822,37.751000000000005,US,USA,United States,,,,,
1761,-97.822,37.751000000000005,US,USA,United States,,,,,
1762,-119.688,45.86959999999999,US,USA,United States,Boardman,97818,OR,541,810
1763,-75.5392,39.79759999999999,US,USA,United States,Wilmington,19803,DE,302,504
1764,-81.1893,28.58869999999999,US,USA,United States,Orlando,32826,FL,407,534
1765,-94.2081,45.580900000000014,US,USA,United States,Saint Cloud,56303,MN,320,613
1766,-97.822,37.751000000000005,US,USA,United States,,,,,
1767,-119.688,45.86959999999999,US,USA,United States,Boardman,97818,OR,541,810
1768,-111.8906,33.61189999999999,US,USA,United States,Scottsdale,85260,AZ,480,753
1769,-122.0574,37.41919999999999,US,USA,United States,Mountain View,94043,CA,650,807
1770,-97.822,37.751000000000005,US,USA,United States,,,,,
1771,-77.4728,39.048100000000005,US,USA,United States,Ashburn,20149,VA,703,511
1772,-97.822,37.751000000000005,US,USA,United States,,,,,
1773,-122.0574,37.41919999999999,US,USA,United States,Mountain View,94043,CA,650,807
1774,-97.822,37.751000000000005,US,USA,United States,,,,,
1775,-97.822,37.751000000000005,US,USA,United States,,,,,
1776,-94.2237,45.63929999999999,US,USA,United States,Sartell,56377,MN,320,613
1777,-112.0712,33.449900000000014,US,USA,United States,Phoenix,85004,AZ,602,753
1778,-90.1979,38.62729999999999,US,USA,United States,St Louis,63150,MO,310,609
1779,-97.822,37.751000000000005,US,USA,United States,,,,,
1780,-122.3123,47.542,US,USA,United States,Seattle,98108,WA,206,819
1781,-97.822,37.751000000000005,US,USA,United States,,,,,
1782,-73.7804,42.7526,US,USA,United States,Latham,12110,NY,518,532
1783,-97.822,37.751000000000005,US,USA,United States,,,,,
1784,-97.822,37.751000000000005,US,USA,United States,,,,,
1785,-97.822,37.751000000000005,US,USA,United States,,,,,
1786,-111.6133,40.21809999999999,US,USA,United States,Provo,84606,UT,801,770
1787,-97.822,37.751000000000005,US,USA,United States,,,,,
1788,-97.822,37.751000000000005,US,USA,United States,,,,,
1789,-77.3489,38.93109999999999,US,USA,United States,Reston,20191,VA,703,511
1790,-97.822,37.751000000000005,US,USA,United States,,,,,
1791,-95.9404,41.25630000000001,US,USA,United States,Omaha,68197,NE,402,652
1792,-97.822,37.751000000000005,US,USA,United States,,,,,
1793,-97.822,37.751000000000005,US,USA,United States,,,,,
1794,-83.7409,42.27760000000001,US,USA,United States,Ann Arbor,48106,MI,734,505
1795,-97.822,37.751000000000005,US,USA,United States,,,,,
1796,-96.8207,32.7825,US,USA,United States,Dallas,75207,TX,214,623
1797,-74.0052,40.72139999999999,US,USA,United States,New York,10013,NY,212,501
1798,-122.29079999999999,47.48910000000001,US,USA,United States,Seattle,98168,WA,206,819
1799,-112.294,34.66489999999999,US,USA,United States,Prescott Valley,86314,AZ,928,753
1800,-97.822,37.751000000000005,US,USA,United States,,,,,
1801,-97.822,37.751000000000005,US,USA,United States,,,,,
1802,-97.822,37.751000000000005,US,USA,United States,,,,,
1803,-73.7993,42.8571,US,USA,United States,Clifton Park,12065,NY,518,532
1804,-97.822,37.751000000000005,US,USA,United States,,,,,
1805,-97.822,37.751000000000005,US,USA,United States,,,,,
1806,-97.822,37.751000000000005,US,USA,United States,,,,,
1807,-111.6133,40.21809999999999,US,USA,United States,Provo,84606,UT,801,770
1808,-97.822,37.751000000000005,US,USA,United States,,,,,
1809,-97.822,37.751000000000005,US,USA,United States,,,,,
1810,-111.8906,33.61189999999999,US,USA,United States,Scottsdale,85260,AZ,480,753
1811,-97.822,37.751000000000005,US,USA,United States,,,,,
1812,-95.4739,29.830099999999987,US,USA,United States,Houston,77092,TX,713,618
1813,-97.822,37.751000000000005,US,USA,United States,,,,,
1814,-97.822,37.751000000000005,US,USA,United States,,,,,
1815,-97.822,37.751000000000005,US,USA,United States,,,,,
1816,-97.822,37.751000000000005,US,USA,United States,,,,,
1817,-97.822,37.751000000000005,US,USA,United States,,,,,
1818,-96.8217,32.778699999999986,US,USA,United States,Dallas,75270,TX,214,623
1819,-97.822,37.751000000000005,US,USA,United States,,,,,
1820,-89.6334,37.438500000000005,US,USA,United States,Jackson,63755,MO,573,632
1821,-97.822,37.751000000000005,US,USA,United States,,,,,
1822,-97.822,37.751000000000005,US,USA,United States,,,,,
1823,-85.2322,41.0394,US,USA,United States,Fort Wayne,46804,IN,260,509
1824,-122.3341,47.610299999999995,US,USA,United States,Seattle,98101,WA,206,819
1825,-97.3076,32.53049999999999,US,USA,United States,Burleson,76028,TX,817,623
1826,-97.822,37.751000000000005,US,USA,United States,,,,,
1827,-97.822,37.751000000000005,US,USA,United States,,,,,
1828,-97.822,37.751000000000005,US,USA,United States,,,,,
1829,-73.7804,42.7526,US,USA,United States,Latham,12110,NY,518,532
1830,-97.822,37.751000000000005,US,USA,United States,,,,,
1831,-97.822,37.751000000000005,US,USA,United States,,,,,
1832,-122.6723,45.94200000000001,US,USA,United States,Woodland,98674,WA,360,820
1833,-97.822,37.751000000000005,US,USA,United States,,,,,
1834,-97.822,37.751000000000005,US,USA,United States,,,,,
1835,-122.29079999999999,47.48910000000001,US,USA,United States,Seattle,98168,WA,206,819
1836,-97.822,37.751000000000005,US,USA,United States,,,,,
1837,-112.031,33.37299999999999,US,USA,United States,Phoenix,85042,AZ,602,753
1838,-97.822,37.751000000000005,US,USA,United States,,,,,
1839,-118.244,34.05439999999999,US,USA,United States,,,CA,,
1840,-96.8,32.7877,US,USA,United States,Dallas,75201,TX,214,623
1841,-97.822,37.751000000000005,US,USA,United States,,,,,
1842,-97.822,37.751000000000005,US,USA,United States,,,,,
1843,-97.822,37.751000000000005,US,USA,United States,,,,,
1844,-97.822,37.751000000000005,US,USA,United States,,,,,
1845,-97.822,37.751000000000005,US,USA,United States,,,,,
1846,-77.7128,39.629099999999994,US,USA,United States,Hagerstown,21740,MD,301,511
1847,-83.4072,42.49799999999999,US,USA,United States,Farmington,48331,MI,248,505
1848,-97.822,37.751000000000005,US,USA,United States,,,,,
1849,-97.822,37.751000000000005,US,USA,United States,,,,,
1850,-106.4965,35.1874,US,USA,United States,Albuquerque,87122,NM,505,790
1851,-97.822,37.751000000000005,US,USA,United States,,,,,
1852,-80.1817,25.774100000000004,US,USA,United States,Miami,33102,FL,786,528
1853,-82.4337,32.2201,US,USA,United States,Vidalia,30474,GA,912,507
1854,-97.822,37.751000000000005,US,USA,United States,,,,,
1855,-97.822,37.751000000000005,US,USA,United States,,,,,
1856,-73.9861,40.716800000000006,US,USA,United States,New York,10002,NY,212,501
1857,-97.822,37.751000000000005,US,USA,United States,,,,,
1858,-118.4041,33.9571,US,USA,United States,Los Angeles,90045,CA,310,803
1859,-95.4739,29.830099999999987,US,USA,United States,Houston,77092,TX,713,618
1860,-97.822,37.751000000000005,US,USA,United States,,,,,
1861,-97.822,37.751000000000005,US,USA,United States,,,,,
1862,-97.822,37.751000000000005,US,USA,United States,,,,,
1863,-86.8733,34.53890000000001,US,USA,United States,Decatur,35603,AL,256,691
1864,-118.27799999999999,34.058400000000006,US,USA,United States,Los Angeles,90017,CA,213,803
1865,-97.822,37.751000000000005,US,USA,United States,,,,,
1866,-97.822,37.751000000000005,US,USA,United States,,,,,
1867,-97.822,37.751000000000005,US,USA,United States,,,,,
1868,-97.822,37.751000000000005,US,USA,United States,,,,,
1869,-118.27799999999999,34.058400000000006,US,USA,United States,Los Angeles,90017,CA,213,803
1870,-122.0574,37.41919999999999,US,USA,United States,Mountain View,94043,CA,650,807
1871,-111.6133,40.21809999999999,US,USA,United States,Provo,84606,UT,801,770
1872,-97.822,37.751000000000005,US,USA,United States,,,,,
1873,-97.822,37.751000000000005,US,USA,United States,,,,,
1874,-117.8535,34.01150000000001,US,USA,United States,Walnut,91789,CA,909,803
1875,-95.4739,29.830099999999987,US,USA,United States,Houston,77092,TX,713,618
1876,-119.688,45.86959999999999,US,USA,United States,Boardman,97818,OR,541,810
1877,-90.7625,33.8852,US,USA,United States,Mound Bayou,38762,MS,662,640
1878,-117.1035,33.53,US,USA,United States,Temecula,92591,CA,951,803
1879,-97.822,37.751000000000005,US,USA,United States,,,,,
1880,-87.654,41.2448,US,USA,United States,Grant Park,60940,IL,815,602
1881,-97.822,37.751000000000005,US,USA,United States,,,,,
1882,-97.822,37.751000000000005,US,USA,United States,,,,,
1883,-97.822,37.751000000000005,US,USA,United States,,,,,
1884,-111.8906,33.61189999999999,US,USA,United States,Scottsdale,85260,AZ,480,753
1885,-97.822,37.751000000000005,US,USA,United States,,,,,
1886,-97.822,37.751000000000005,US,USA,United States,,,,,
1887,-97.822,37.751000000000005,US,USA,United States,,,,,
1888,-111.9519,33.674800000000005,US,USA,United States,Phoenix,85054,AZ,480,753
1889,-95.4739,29.830099999999987,US,USA,United States,Houston,77092,TX,713,618
1890,-97.822,37.751000000000005,US,USA,United States,,,,,
1891,-87.6551,41.93729999999999,US,USA,United States,Chicago,60657,IL,773,602
1892,-97.822,37.751000000000005,US,USA,United States,,,,,
1893,-97.822,37.751000000000005,US,USA,United States,,,,,
1894,-81.1893,28.58869999999999,US,USA,United States,Orlando,32826,FL,407,534
1895,-97.822,37.751000000000005,US,USA,United States,,,,,
1896,-97.822,37.751000000000005,US,USA,United States,,,,,
1897,-97.822,37.751000000000005,US,USA,United States,,,,,
1898,-117.8612,33.92689999999999,US,USA,United States,Brea,92821,CA,714,803
1899,-97.822,37.751000000000005,US,USA,United States,,,,,
1900,-77.3008,35.52350000000001,US,USA,United States,Greenville,27858,NC,252,545
1901,-117.8535,34.01150000000001,US,USA,United States,Walnut,91789,CA,909,803
1902,-97.822,37.751000000000005,US,USA,United States,,,,,
1903,-84.636,42.72569999999999,US,USA,United States,Lansing,48917,MI,517,551
1904,-97.822,37.751000000000005,US,USA,United States,,,,,
1905,-97.822,37.751000000000005,US,USA,United States,,,,,
1906,-97.822,37.751000000000005,US,USA,United States,,,,,
1907,-76.0185,39.05430000000001,US,USA,United States,Centreville,21617,MD,410,512
1908,-97.822,37.751000000000005,US,USA,United States,,,,,
1909,-94.566,39.10679999999999,US,USA,United States,Kansas City,64106,MO,816,616
1910,-87.7734,41.78530000000001,US,USA,United States,Chicago,60638,IL,773,602
1911,-97.822,37.751000000000005,US,USA,United States,,,,,
1912,-84.3596,40.841499999999996,US,USA,United States,Delphos,45833,OH,419,558
1913,-122.08080000000001,37.668800000000005,US,USA,United States,Hayward,94543,CA,510,807
1914,-80.258,26.27199999999999,US,USA,United States,Pompano Beach,33065,FL,954,528
1915,-97.822,37.751000000000005,US,USA,United States,,,,,
1916,-111.8906,33.61189999999999,US,USA,United States,Scottsdale,85260,AZ,480,753
1917,-97.822,37.751000000000005,US,USA,United States,,,,,
1918,-97.822,37.751000000000005,US,USA,United States,,,,,
1919,-97.822,37.751000000000005,US,USA,United States,,,,,
1920,-122.0574,37.41919999999999,US,USA,United States,Mountain View,94043,CA,650,807
1921,-119.688,45.86959999999999,US,USA,United States,Boardman,97818,OR,541,810
1922,-72.7362,41.8527,US,USA,United States,Bloomfield,06002,CT,860,533
1923,-122.0574,37.41919999999999,US,USA,United States,Mountain View,94043,CA,650,807
1924,-104.9995,39.7525,US,USA,United States,Denver,80202,CO,303,751
1925,-87.6272,41.8776,US,USA,United States,Chicago,60604,IL,312,602
1926,-97.822,37.751000000000005,US,USA,United States,,,,,
1927,-97.822,37.751000000000005,US,USA,United States,,,,,
1928,-97.822,37.751000000000005,US,USA,United States,,,,,
1929,-97.822,37.751000000000005,US,USA,United States,,,,,
1930,-111.6133,40.21809999999999,US,USA,United States,Provo,84606,UT,801,770
1931,-94.174,30.102800000000002,US,USA,United States,Beaumont,77706,TX,409,692
1932,-97.822,37.751000000000005,US,USA,United States,,,,,
1933,-122.3558,37.52600000000001,US,USA,United States,San Mateo,94402,CA,650,807
1934,-82.9588,39.892799999999994,US,USA,United States,Columbus,43207,OH,614,535
1935,-97.822,37.751000000000005,US,USA,United States,,,,,
1936,-97.822,37.751000000000005,US,USA,United States,,,,,
1937,-97.822,37.751000000000005,US,USA,United States,,,,,
1938,-84.636,42.72569999999999,US,USA,United States,Lansing,48917,MI,517,551
1939,-77.4728,39.048100000000005,US,USA,United States,Ashburn,20149,VA,703,511
1940,-121.8914,37.33879999999999,US,USA,United States,San Jose,95141,CA,408,807
1941,-118.27799999999999,34.058400000000006,US,USA,United States,Los Angeles,90017,CA,213,803
1942,-97.822,37.751000000000005,US,USA,United States,,,,,
1943,-97.822,37.751000000000005,US,USA,United States,,,,,
1944,-97.822,37.751000000000005,US,USA,United States,,,,,
1945,-97.822,37.751000000000005,US,USA,United States,,,,,
1946,-111.6133,40.21809999999999,US,USA,United States,Provo,84606,UT,801,770
1947,-97.822,37.751000000000005,US,USA,United States,,,,,
1948,-79.7896,32.86959999999999,US,USA,United States,Mount Pleasant,29466,SC,843,519
1949,-97.822,37.751000000000005,US,USA,United States,,,,,
1950,-97.822,37.751000000000005,US,USA,United States,,,,,
1951,-74.1138,40.981599999999986,US,USA,United States,Ridgewood,07450,NJ,201,501
1952,-97.822,37.751000000000005,US,USA,United States,,,,,
1953,-97.822,37.751000000000005,US,USA,United States,,,,,
1954,-90.1979,38.62729999999999,US,USA,United States,St Louis,63150,MO,310,609
1955,-97.822,37.751000000000005,US,USA,United States,,,,,
1956,-97.822,37.751000000000005,US,USA,United States,,,,,
1957,-82.3024,27.900299999999987,US,USA,United States,Brandon,33511,FL,813,539
1958,-118.1908,34.11250000000001,US,USA,United States,Los Angeles,90042,CA,323,803
1959,-111.6133,40.21809999999999,US,USA,United States,Provo,84606,UT,801,770
1960,-97.822,37.751000000000005,US,USA,United States,,,,,
1961,-97.822,37.751000000000005,US,USA,United States,,,,,
1962,-122.34219999999999,47.6344,US,USA,United States,Seattle,98109,WA,206,819
1963,-97.822,37.751000000000005,US,USA,United States,,,,,
1964,-97.822,37.751000000000005,US,USA,United States,,,,,
1965,-97.822,37.751000000000005,US,USA,United States,,,,,
1966,-97.822,37.751000000000005,US,USA,United States,,,,,
1967,-97.822,37.751000000000005,US,USA,United States,,,,,
1968,-97.822,37.751000000000005,US,USA,United States,,,,,
1969,-97.822,37.751000000000005,US,USA,United States,,,,,
1970,-122.7041,38.3433,US,USA,United States,Rohnert Park,94928,CA,707,807
1971,-97.822,37.751000000000005,US,USA,United States,,,,,
1972,-76.7048,40.60499999999999,US,USA,United States,Lykens,17048,PA,717,566
1973,-122.0574,37.41919999999999,US,USA,United States,Mountain View,94043,CA,650,807
1974,-75.5281,39.7157,US,USA,United States,Wilmington,19801,DE,302,504
1975,-84.636,42.72569999999999,US,USA,United States,Lansing,48917,MI,517,551
1976,-97.822,37.751000000000005,US,USA,United States,,,,,
1977,-97.822,37.751000000000005,US,USA,United States,,,,,
1978,-97.822,37.751000000000005,US,USA,United States,,,,,
1979,-97.822,37.751000000000005,US,USA,United States,,,,,
1980,-97.822,37.751000000000005,US,USA,United States,,,,,
1981,-90.2505,30.0282,US,USA,United States,Kenner,70065,LA,504,622
1982,-97.822,37.751000000000005,US,USA,United States,,,,,
1983,-97.822,37.751000000000005,US,USA,United States,,,,,
1984,-122.0574,37.41919999999999,US,USA,United States,Mountain View,94043,CA,650,807
1985,-84.636,42.72569999999999,US,USA,United States,Lansing,48917,MI,517,551
1986,-117.8612,33.92689999999999,US,USA,United States,Brea,92821,CA,714,803
1987,-97.822,37.751000000000005,US,USA,United States,,,,,
1988,-97.822,37.751000000000005,US,USA,United States,,,,,
1989,-97.822,37.751000000000005,US,USA,United States,,,,,
1990,-111.8906,33.61189999999999,US,USA,United States,Scottsdale,85260,AZ,480,753
1991,-111.9519,33.674800000000005,US,USA,United States,Phoenix,85054,AZ,480,753
1992,-97.822,37.751000000000005,US,USA,United States,,,,,
1993,-97.822,37.751000000000005,US,USA,United States,,,,,
1994,-97.822,37.751000000000005,US,USA,United States,,,,,
1995,-118.244,34.05439999999999,US,USA,United States,Los Angeles,90009,CA,310,803
1996,-84.636,42.72569999999999,US,USA,United States,Lansing,48917,MI,517,551
1997,-97.822,37.751000000000005,US,USA,United States,,,,,
1998,-93.4103,44.67420000000001,US,USA,United States,Prior Lake,55372,MN,952,613
1999,-77.3489,38.93109999999999,US,USA,United States,Reston,20191,VA,703,511
2000,-97.822,37.751000000000005,US,USA,United States,,,,,
